name,phone,email,company,city,region,country,iban,marriage,address
Slade Cross,(881) 752-1962,malesuada@icloud.com,Hymenaeos Mauris Corp.,Tuguegarao,Euskadi,Norway,MK05444224124333242,No,Ap #407-7248 Magnis Rd.
Paki Randolph,(243) 301-4398,volutpat.nulla@icloud.ca,Urna Justo Industries,Jilin,Lower Austria,Spain,FO0957621885108418,Yes,615-7422 Ante St.
Cody Simon,(443) 441-5991,quis@hotmail.ca,Interdum Nunc Sollicitudin Corporation,Mundare,Stockholms län,Ireland,RS51825727671018385513,No,"P.O. Box 478, 3005 Eu, Rd."
Yetta Cotton,(381) 453-8879,eget@aol.couk,Porttitor Tellus Non LLP,Kędzierzyn-Koźle,West-Vlaanderen,Sweden,GE26186724711813568987,No,Ap #691-8183 Ac St.
Winifred Myers,(422) 758-9745,nec@protonmail.com,Magna PC,Yorkton,West Java,Austria,GB27XOQH41883629122302,No,"P.O. Box 534, 8342 Dolor, St."
Clayton Jackson,(948) 425-8711,felis@hotmail.com,Sodales Purus In Incorporated,Long Xuyên,Delta,South Africa,GR5341981775441597216646865,Yes,433-9149 Suspendisse Av.
Guy Knox,1-727-737-7377,aliquam.eu@yahoo.ca,Scelerisque Lorem Consulting,Bauchi,Vestland,Nigeria,IT037VYSDI74673902052023164,No,838-6835 Metus. Ave
Hammett Dodson,1-431-297-4415,posuere.cubilia@icloud.couk,Pharetra Ut Pharetra Foundation,Laakirchen,Massachusetts,Sweden,GR0458067125820836571142695,No,8849 Rhoncus St.
Tara Bruce,(824) 809-2224,molestie@google.ca,Sit Amet Ultricies Ltd,Bhimber,Schleswig-Holstein,Mexico,EE533568214675232616,No,376-5126 Vitae Ave
Stone Williamson,1-154-153-7912,nec.urna@aol.com,Porttitor Vulputate Posuere Industries,Bukit Panjang,Haute-Normandie,Canada,GT24821312670269284507819532,No,Ap #312-4942 Erat Ave
Donovan Deleon,(874) 792-2518,nullam@protonmail.org,Feugiat Tellus Inc.,Ceyhan,Møre og Romsdal,Pakistan,VG6062641802373885575465,Yes,"Ap #133-2021 Quis, Avenue"
Kamal Kline,1-457-324-1358,interdum@outlook.ca,Senectus Et Netus Ltd,Namyangju,An Giang,Singapore,ME79346822318471113703,Yes,"Ap #271-3545 Montes, Road"
Tad Robbins,(627) 982-6484,cursus.vestibulum@aol.net,Magna Phasellus Foundation,Leonding,Cantabria,Brazil,FO9521842859958562,Yes,Ap #249-7333 Vehicula Rd.
Ashely Espinoza,(839) 661-5714,pede@icloud.couk,Nulla Inc.,Ternitz,Soccsksargen,Germany,GT86230531778684873117426718,Yes,182-621 Ipsum Street
Luke Bright,1-475-866-8433,molestie.tellus.aenean@icloud.com,Purus Sapien Industries,Belfast,Gauteng,Colombia,PL98164517528348711229661897,Yes,1764 Pharetra. Rd.
Wyatt Hancock,(765) 851-6542,risus.quis.diam@yahoo.couk,Varius Et Euismod Foundation,Bethlehem,Melilla,Poland,DE32315587444116855551,No,458-419 Erat Ave
Hu Medina,(894) 832-7571,eget@aol.com,Sit Amet Company,Bitung,Ulster,Mexico,IS076619818567643377721686,Yes,"967-9893 Elementum, Avenue"
Carson Pennington,1-294-251-5126,interdum.sed.auctor@hotmail.org,Vestibulum Mauris Magna LLC,Valledupar,South Island,Pakistan,LI2328868456231151735,Yes,"Ap #208-900 Elementum, St."
Nyssa Abbott,1-362-648-4768,nunc.ullamcorper.velit@aol.couk,Erat Vivamus Nisi Corporation,Bafra,Burgenland,Belgium,TN6144468928252861302524,Yes,557-502 Ut Avenue
Margaret Whitley,(349) 774-6225,mattis.ornare.lectus@google.ca,Mattis Velit Associates,Dornbirn,Jigawa,Belgium,KW3184645306114185169537582429,No,8182 Eu Rd.
Faith Tillman,1-562-248-8892,nunc.sed@aol.com,Dolor Inc.,Rawalakot,South Australia,Colombia,AE947532755449353771849,Yes,Ap #755-4219 Morbi St.
Autumn Chan,1-440-372-2333,pellentesque.ut@yahoo.com,Nulla Interdum Curabitur LLP,Nässjö,Friesland,Italy,VG6619472791712588695770,No,201-7121 Pellentesque. St.
Lana Harvey,1-821-327-8619,a.malesuada@icloud.net,Auctor Non LLC,Sens,West Region,Ukraine,PS377732471532376480069384845,No,Ap #477-4329 Nunc St.
Celeste Ross,1-755-363-3720,ornare.lectus@icloud.ca,Ullamcorper Magna Corporation,Alexandra,Pays de la Loire,Ireland,EE248117669445863317,Yes,Ap #476-4412 Quisque Road
Arden Doyle,(727) 423-1364,eget.massa@outlook.edu,Porttitor Tellus Non Institute,Gansu,Assam,Netherlands,PK9679273079341225124206,No,746-3269 Ipsum Ave
Mara Hensley,(867) 520-8257,non.enim.mauris@hotmail.com,Neque Ltd,Chillán,Jönköpings län,Vietnam,PT81859521564696278551187,Yes,Ap #356-7920 Hendrerit St.
Thor Salazar,1-248-289-3820,nunc.ullamcorper@hotmail.edu,Mauris Corp.,Kaduna,Xīběi,Turkey,AT399878749193767667,No,"988-8317 Placerat, Road"
Thane Jefferson,1-154-634-2293,sit@google.ca,Sed Pede Cum PC,Paarl,Małopolskie,Philippines,LT487022513632460434,Yes,2375 Bibendum St.
Vincent Hurst,(474) 565-8217,posuere.enim.nisl@google.couk,Et Magnis Dis Consulting,Flushing,Gauteng,New Zealand,FI9816046403281337,No,961-9257 Donec Road
Aline Decker,1-201-284-1176,ridiculus.mus@outlook.net,Ante Ipsum Incorporated,Kielce,Melilla,Belgium,CY89377735118966996673537572,No,"P.O. Box 235, 6988 Dignissim Avenue"
Colin Dean,1-785-458-5036,dui@outlook.couk,Mattis Velit Corp.,Smolensk,Emilia-Romagna,Poland,FR3382673503336930571633789,Yes,Ap #780-1207 Sem St.
Tate Terrell,1-265-908-4758,tellus.suspendisse.sed@aol.couk,Et Malesuada Limited,Cork,Konya,Mexico,RO63LDNR0119505156554424,No,"P.O. Box 103, 4729 Sociis Street"
Simon Morrow,(245) 284-0212,volutpat@outlook.ca,Non Incorporated,Kroonstad,Heredia,Canada,ME71740861141804212444,Yes,655-8025 Morbi Av.
Kato Lambert,1-936-151-8132,ut.nec@icloud.ca,Eros Nam PC,Gävle,Yukon,Poland,SA8751786162669079813470,No,593-9707 Elit. Av.
Ryan English,1-313-222-6221,penatibus.et@icloud.edu,Sociis Natoque Institute,Biała Podlaska,Östergötlands län,Brazil,ES6920479256214028333203,Yes,Ap #121-489 Proin St.
Connor Maynard,1-407-379-8192,curabitur@yahoo.ca,Amet Ornare Inc.,Simpang,Swiętokrzyskie,Norway,LU341383961049784316,No,1842 Quis Av.
Amena Burke,(624) 801-7190,ullamcorper.eu@yahoo.couk,Vel Est LLP,Nova Kakhovka,Drenthe,Vietnam,AZ39999673515277918924265232,Yes,3439 Proin Road
Sylvester Hardy,(958) 652-1622,curabitur.dictum.phasellus@yahoo.com,Aliquam Foundation,Palma de Mallorca,Kayseri,Mexico,LT479088413843356116,Yes,"P.O. Box 286, 7454 Rutrum Street"
Mikayla Bonner,1-277-758-5623,enim@yahoo.ca,Id Sapien Cras Associates,Altmünster,Nord-Pas-de-Calais,France,BH83323376676675948607,No,210-7940 At St.
Isabelle Houston,1-590-788-3662,sed@icloud.edu,Malesuada Integer Id Consulting,Hemel Hempstead,Andaman and Nicobar Islands,Belgium,MR4076423041550724137512498,Yes,Ap #140-3113 Ligula St.
Heather Montgomery,(343) 862-6452,eget.metus@icloud.ca,At Libero Institute,Pretoria,South Kalimantan,Germany,SM1164383921884222626590155,Yes,Ap #791-3412 Porta St.
Octavius Adkins,(823) 728-0846,quisque.purus@icloud.net,Id Libero LLC,Nazilli,Umbria,Austria,VG7177214761853856387212,No,1659 Integer Ave
Prescott Rowland,(223) 951-1483,in.hendrerit@outlook.ca,Quam Institute,Linköping,Zeeland,China,BE89746701780743,No,306-233 Aliquet Avenue
Amena Garrett,1-350-552-6977,ipsum.donec@yahoo.couk,Nec Diam Corp.,Aizwal,Jönköpings län,Indonesia,DO14414818252928272697227436,Yes,Ap #218-3243 Consectetuer Road
Ralph Griffin,(281) 394-6617,arcu.aliquam@yahoo.com,Sodales LLP,Gore,South Gyeongsang,Nigeria,MC2828762307872862366267794,No,4279 Sem Rd.
Jana Burnett,(415) 342-3339,feugiat.placerat@icloud.couk,Ipsum Suspendisse Limited,Devonport,Idaho,Norway,SI55157566292463815,No,Ap #155-6306 Nec Rd.
Regina Potts,(455) 855-7876,orci.luctus@hotmail.ca,Donec Associates,Hà Tĩnh,Gävleborgs län,Russian Federation,DE03839539240852272355,No,Ap #941-4876 Fusce Rd.
Hannah Petty,(366) 945-6114,fringilla@google.edu,Dui Nec Foundation,New Plymouth,Quảng Ninh,India,AT158610593861967177,No,692-4834 Eget Rd.
Rylee Vega,1-882-816-7531,libero.integer@protonmail.org,Suspendisse Aliquet Sem Associates,Dublin,Zachodniopomorskie,China,LU903974760125914426,No,4555 Pellentesque Ave
Allen Preston,1-852-466-1814,id.risus@google.ca,Eu Odio Limited,Chihuahua,O'Higgins,Norway,CH6053748111634259767,Yes,335-184 Ut Rd.
John Dudley,(394) 847-4248,amet.consectetuer@icloud.com,Sapien Molestie Orci PC,Berlin,Thanh Hóa,Netherlands,GE43472946616354685658,No,"Ap #166-7653 A, Avenue"
Brynne Glenn,(948) 443-2732,consequat.lectus@hotmail.ca,Donec Egestas Consulting,Yenakiieve,Imo,Poland,LB54588641978927945384131242,Yes,Ap #312-6485 Ligula. Rd.
Portia King,(721) 622-5681,dolor.quam@outlook.couk,Nullam Vitae Diam LLC,River Valley,Punjab,Mexico,TN6931719068204636278638,Yes,"2236 Nec, St."
George Simmons,(946) 827-1351,blandit.enim.consequat@hotmail.edu,Velit Sed Limited,Starachowice,North Jeolla,China,KZ565311618808217935,No,528-2751 Cras Avenue
Anika Wells,(862) 752-6135,elit.nulla@icloud.com,A Magna PC,Bida,Franche-Comté,Ukraine,FI2931855338770566,Yes,137-6682 Aliquet Road
Gail Wilkinson,1-716-158-0865,velit.egestas@protonmail.org,Malesuada Malesuada Limited,Graaff-Reinet,Noord Brabant,Pakistan,FO9178716480154628,Yes,2078 Eu Rd.
Barbara Dalton,1-854-246-4359,mauris@protonmail.ca,Eu Odio LLC,Marchihue,Ilocos Region,Philippines,SI02217431288357536,Yes,Ap #225-4673 Morbi Rd.
Anthony Mckee,(377) 614-2223,neque.sed@outlook.edu,Eget Institute,Chaitén,North Island,Pakistan,NO1962780133864,Yes,Ap #276-1689 Proin Rd.
Aurora Newton,1-138-723-2411,faucibus.leo.in@aol.org,Accumsan Limited,Vienna,Northern Cape,South Africa,PS565615322972612138091446947,Yes,"P.O. Box 691, 8524 Quis Rd."
Graham Orr,1-466-942-9851,pellentesque.a.facilisis@hotmail.net,Semper Dui Associates,Ceuta,North Maluku,Ukraine,LB75061109843867954042913247,No,933-3856 Dictum Road
Holly Hernandez,1-888-519-2526,non.bibendum.sed@hotmail.edu,Nibh Aliquam LLP,Novena,Eastern Visayas,Netherlands,MK91151034753587827,No,Ap #150-1021 Nisi. Street
Lilah Harrell,1-586-776-5364,nisi.magna@yahoo.com,Amet Consulting,Jilin,Balochistan,India,MC9322155041435054838432842,No,"P.O. Box 363, 7704 Magna Street"
Rhonda Richard,1-168-728-4760,at.arcu@hotmail.ca,Nunc Quisque Ornare Industries,Tam Kỳ,Molise,Netherlands,RS39436356223488630645,No,"Ap #909-7820 A, Rd."
Ariana Potter,1-174-532-4385,ipsum.non@outlook.edu,Rhoncus Donec Est Company,Palmira,Pembrokeshire,Belgium,MR7821866626314124407436432,Yes,"Ap #131-7078 Amet, Street"
Martena Banks,(358) 557-8641,id.sapien.cras@aol.org,Posuere Vulputate Corp.,Workington,Balochistan,Mexico,KW5188618293011548669655788543,Yes,"133-9189 Pellentesque, Avenue"
Orlando Huff,1-853-327-0306,nisi@aol.edu,Phasellus PC,Kemerovo,North Island,India,IS642143326504612407867623,No,"P.O. Box 167, 4387 Tortor Rd."
Armand Boone,(482) 917-3347,urna@icloud.ca,Natoque LLP,Brussel,Northern Cape,India,CY77423959253448067416477632,Yes,Ap #838-1708 Erat St.
Ulric Torres,1-214-363-5432,pellentesque.massa.lobortis@icloud.net,Nibh Ltd,Muzaffargarh,Kansas,Vietnam,IS635763475317831514168395,Yes,206-7622 Dolor Road
Clare Silva,1-256-331-4794,nullam@google.edu,Lorem Ltd,Clementi,Limón,South Korea,GR5114113846767529734232641,Yes,Ap #634-3536 Neque. St.
Nadine Kirkland,1-153-733-3515,orci.sem.eget@outlook.net,Nostra Per PC,Dehradun,Northwest Territories,Netherlands,CH2969623665691537547,No,585-181 Et Avenue
Luke Perry,(353) 871-6334,consectetuer.euismod@google.edu,Erat Neque Corporation,Tula,California,Mexico,AL65573237598697249291065672,Yes,"P.O. Box 234, 3869 Accumsan Street"
Sarah Carpenter,(703) 443-0851,metus.aenean@icloud.couk,Luctus Ipsum Leo LLC,Chiquinquirá,Đà Nẵng,Germany,IT148JEWZI77514498274455252,No,2888 Et Road
Hyacinth Grant,1-317-248-5487,lectus.a@hotmail.org,Purus In Molestie LLC,Alanya,Loreto,India,VG1107921727313716395568,Yes,Ap #248-4080 Suspendisse Rd.
Leah Acosta,1-237-216-2488,erat.nonummy@outlook.com,Sem Corporation,Vienna,Dōngběi,Germany,GI30DPWL279123432343497,No,154-7455 Ut Rd.
Callum Dalton,1-606-362-5287,senectus.et.netus@icloud.edu,Urna Institute,San Jose,Bình Thuận,Nigeria,MT59UHKO33443425561517605507225,No,"5734 Consequat, St."
Lester Pena,1-945-235-3456,cras.eget@aol.ca,Ac Mi Eleifend Industries,Haveli,Cornwall,Brazil,LU948495833155818678,Yes,9417 Litora Av.
Kylee Carter,(635) 208-5758,risus.duis.a@google.couk,Habitant Morbi Tristique Corp.,Kurram Agency,Massachusetts,Pakistan,TR264229286582744827724980,Yes,457-1286 Molestie Rd.
Adrienne Zimmerman,(447) 556-3971,egestas.lacinia@yahoo.couk,Nullam Lobortis LLP,Anklam,Gaziantep,Indonesia,GL1646619085881775,Yes,"P.O. Box 577, 6977 Ornare St."
Elijah Dunn,1-127-681-6580,id.risus@outlook.org,Luctus Ut Pellentesque LLP,Cape Town,Tyrol,Indonesia,HR0395422519662335370,No,"202-979 Id, Rd."
Ariel Rosa,1-477-257-5805,nibh.donec@aol.edu,Ornare Facilisis Limited,Sincelejo,New South Wales,South Korea,CH4461490474032381267,No,Ap #671-2960 Vulputate Av.
Shelley Nichols,(250) 441-4652,cursus.integer.mollis@outlook.couk,Blandit Nam Associates,Ceuta,Östergötlands län,Germany,MD7512491485466448123622,No,895-2683 Etiam Av.
Steven Frank,1-945-359-0751,diam.luctus@google.org,Integer In LLP,Merzig,Valle d'Aosta,Canada,FO1146164884354581,No,817-5329 Tincidunt Road
Dylan Harrington,(750) 313-6568,eu.arcu@outlook.edu,Ullamcorper Velit Inc.,Columbus,La Libertad,Netherlands,LI1053187685825451585,Yes,570-4481 Erat Avenue
Emma Moses,(235) 825-4463,mattis@icloud.ca,Adipiscing Non Consulting,Catemu,Kemerovo Oblast,Italy,EE557117922974844478,Yes,4885 Nisl St.
Cynthia Lopez,1-548-221-3457,feugiat.tellus@google.com,Justo Sit Associates,Tacloban,North Region,Colombia,PL79223390757222556020302245,Yes,"4503 Lorem, Ave"
Nyssa Sutton,(527) 683-0148,eros.turpis.non@aol.org,Eget Metus Eu Company,Dublin,San Andrés y Providencia,Pakistan,GI76KYVP392938029074516,Yes,662-3924 Sem. Av.
Rachel Chapman,1-886-902-5962,lorem@outlook.net,Non Magna LLC,Ödemiş,San Luis Potosí,Belgium,NO7880653249788,No,519-6465 Auctor St.
Orlando Hutchinson,(486) 755-2544,blandit.mattis@google.edu,Sit PC,Uijeongbu,Nova Scotia,United States,IT401YMBVI68829821204186248,No,Ap #865-9958 Aliquam Rd.
Amity Dunn,(531) 642-2850,id.blandit.at@yahoo.couk,Id Ante Nunc Institute,Haddington,Bình Dương,France,DE52899354254281025632,No,"646-435 Adipiscing, St."
Abraham Perez,1-566-374-5531,interdum.curabitur@protonmail.ca,Tellus Aenean Foundation,Cork,Chelyabinsk Oblast,Nigeria,FO7754798396960272,No,Ap #423-7884 Ligula. Street
Honorato Cochran,1-276-861-0383,tincidunt.adipiscing@icloud.ca,Placerat Augue Foundation,Delft,Ceará,Australia,AT345057348058529252,No,Ap #719-4016 Vel Rd.
Randall Morris,1-488-866-3874,egestas.urna@icloud.edu,Massa Mauris Foundation,Boorsem,Tabasco,Ukraine,GL8444669228246627,No,"148-200 Tellus, Rd."
Elton Lowery,1-738-357-1709,ultrices.posuere@google.edu,Lectus LLP,Laren,Los Ríos,Russian Federation,MK66765824452272676,Yes,"Ap #474-6622 Et, Avenue"
Cheyenne Wolfe,(745) 565-5726,egestas.hendrerit@icloud.ca,Dolor Sit Amet Corp.,Nelspruit,Thái Nguyên,Nigeria,LB75865475444986354197616659,Yes,5665 At St.
Harding Duke,1-853-732-7835,amet.orci@google.ca,A Enim LLP,Poza Rica,Oryol Oblast,Russian Federation,HR1430944139834881030,Yes,"994-3346 Tincidunt, St."
Noel Chang,1-436-680-3278,ut.dolor.dapibus@yahoo.couk,Montes Nascetur PC,Anchorage,Nordland,Peru,GE34782646547292123828,No,1278 Nulla. Ave
Wyatt Turner,(824) 733-8531,feugiat.non@outlook.org,Donec Fringilla Donec Company,Basirhat,Lakshadweep,France,SK2825678594723400145274,No,"P.O. Box 735, 485 Amet Rd."
Elliott Jennings,(437) 685-9523,mus@aol.ca,In Consectetuer Ipsum Corporation,Leersum,North Island,Russian Federation,PL94735125328595218617231165,Yes,1490 Dolor Rd.
Justin Vaughan,(594) 487-4842,risus.donec@outlook.couk,Facilisis Vitae Ltd,Göteborg,Sachsen,Colombia,ES8661446317248573615131,No,6391 Eros. Rd.
Quemby Booth,1-481-349-2095,justo.eu@icloud.edu,Dolor Egestas Inc.,Jamshedpur,Northern Cape,Poland,AE218943678292886683804,No,Ap #950-9085 Orci Avenue
Quinlan Cameron,(325) 813-7961,accumsan.neque@aol.ca,Ante Inc.,Hove,Vestfold og Telemark,Colombia,LT097007139772153244,No,138-3992 Porttitor Avenue
Fritz Mercer,1-849-463-0531,proin.velit@hotmail.couk,Accumsan Convallis Inc.,Alwar,Bahia,Australia,DE59882259388410117557,Yes,671-6401 Velit St.
Meredith O'connor,(258) 724-7872,ac.sem@protonmail.org,Risus Quisque Ltd,Bukit Timah,Campania,Australia,GE57536313770281336588,Yes,8407 Sit Rd.
Nolan Lara,1-829-512-6259,leo@google.edu,Aliquam Erat Volutpat Corporation,Wolfurt,Bình Dương,China,RS76823723404873399379,Yes,"P.O. Box 588, 9695 Mauris Av."
Dara Rivera,(342) 615-6226,aenean.gravida.nunc@outlook.ca,A Aliquet Vel LLC,Hammerfest,Nunavut,United States,LI1671695154542083720,Yes,872-6657 Ut Rd.
Alma Mcdaniel,(170) 967-6386,accumsan.sed@aol.org,Consequat Enim Diam Corp.,Vandoeuvre-lès-Nancy,Liguria,France,NL25JKEL4121214512,No,"P.O. Box 169, 2556 Venenatis Street"
Linus Carr,1-226-101-8871,accumsan.sed@hotmail.couk,Sociis Natoque Penatibus LLC,Birkenhead,Chiapas,Peru,MC9864121871323727821530783,Yes,"667-6092 Amet, St."
Erich Bush,1-163-828-7752,nullam@google.ca,A Tortor LLP,Naushahro Firoze,Indiana,Turkey,AZ77785532303775295626504221,No,958-9702 Integer Road
Thaddeus Sparks,1-636-266-3081,felis@google.couk,Lorem Auctor Ltd,Smila,Ulster,Germany,TN2468682858138851423812,No,6596 Ligula Rd.
Fatima Meyer,1-421-646-6816,aenean.eget@hotmail.edu,Enim Mauris Associates,Camporotondo di Fiastrone,Western Australia,China,LI5428154458776367937,No,625-3846 Arcu. Rd.
Dorothy Solomon,1-612-849-3416,habitant.morbi@outlook.couk,Phasellus At Augue Foundation,Kalisz,La Libertad,Philippines,AZ13251622433177466445949785,Yes,2582 Et Street
Tasha Marks,1-541-567-5609,accumsan.convallis@yahoo.edu,Etiam Bibendum Fermentum Industries,Homburg,Jönköpings län,Poland,BG97ZRKO92160625788166,No,458-2470 A Ave
Maxwell Stokes,1-645-672-1683,sit.amet@google.com,Natoque Penatibus Institute,Lauro de Freitas,La Guajira,Spain,CH7860395123462304876,Yes,642-6983 Libero Ave
Dalton Blackburn,(773) 737-5303,sit.amet.dapibus@protonmail.com,Vitae Erat Vel Foundation,Middelburg,Antwerpen,Turkey,TN5721069626281352211551,No,6382 Sit Road
Ashely Baxter,(386) 862-3156,sed.congue.elit@aol.couk,Adipiscing Mauris LLP,Caen,Friuli-Venezia Giulia,Vietnam,BG65BOJY56835797291915,No,"P.O. Box 591, 2063 Donec Road"
Bo Reese,(581) 965-4792,velit@aol.edu,Odio Institute,Worms,Aisén,Belgium,ES4688978591462556870564,No,392-8127 Aliquam Rd.
Harlan Kennedy,(628) 774-4735,eu.turpis@icloud.com,Augue Id Incorporated,Gyeongju,Zeeland,Australia,MC8524582469668825178593615,Yes,775-1889 Proin Avenue
Pandora Duran,(299) 260-0367,a.sollicitudin@google.com,Eu Arcu PC,Hà Giang,Nord-Pas-de-Calais,Australia,RO64JGVL5645267306314231,Yes,506 Et Street
Graham Porter,1-846-514-5434,enim.gravida.sit@google.net,Sed Limited,Huancayo,Konya,Nigeria,PT86763241455387373812612,No,428 Fringilla St.
Zachery Sweeney,(453) 211-7567,orci.luctus@yahoo.edu,Quam Foundation,Pamplona,Amur Oblast,Germany,MT75DJFI31876583921143885356468,No,"P.O. Box 515, 3756 Erat Ave"
Sage Hamilton,(646) 445-2294,curabitur@protonmail.net,Mollis Non Corp.,Watson Lake,Southeast Sulawesi,Belgium,MC8511772181744787975057051,No,1710 Suspendisse St.
Katelyn Wiggins,1-994-535-4224,quam.dignissim.pharetra@outlook.com,Posuere Ltd,Orenburg,Tasmania,Sweden,GT30151462175466958851452350,No,"550 Lorem, Street"
Rogan Sullivan,(862) 591-8852,purus.sapien.gravida@aol.ca,Arcu Institute,Squillace,Sumy oblast,Turkey,IT651YVWSI66318562758267006,Yes,4540 Senectus Street
Hanna Peterson,1-762-294-2168,tincidunt.donec@google.ca,Nisl Elementum Institute,Niort,Poltava oblast,China,LT821285986849276203,Yes,Ap #612-5607 Luctus Ave
Kenyon Rosario,1-922-386-7362,risus.nunc@hotmail.edu,Ridiculus Mus Foundation,Ponte nelle Alpi,Brussels Hoofdstedelijk Gewest,Germany,PK0930217891513617675372,No,"Ap #115-1766 Elit, St."
Craig Hubbard,1-533-534-3631,imperdiet@icloud.ca,Nam Foundation,Ryazan,Valle del Cauca,New Zealand,HR0333665341880210455,No,Ap #317-7423 Vel Rd.
Hamish Klein,(435) 639-6894,orci.luctus@yahoo.net,Orci Corp.,Kamianske,La Libertad,Poland,MT40WFRF68754478723323263796495,Yes,Ap #172-5043 Sed Avenue
Jackson Wilder,1-945-528-1316,nulla.semper@google.edu,Vivamus Molestie LLP,Avise,Cundinamarca,Poland,HR4542550713278096333,Yes,Ap #247-4762 Diam. Road
Maxwell Garner,(655) 814-1287,sit.amet@yahoo.couk,Ultrices Iaculis Odio Inc.,Siegendorf,Aquitaine,Russian Federation,EE375656470886627912,No,"P.O. Box 698, 9219 Suspendisse Street"
Ronan Wagner,(511) 311-9151,dui.cras@google.ca,Pharetra Institute,Aiseau,Phú Thọ,Philippines,MU7718513358955566207582209325,Yes,Ap #602-7318 Augue Rd.
Kaitlin Frost,(647) 584-4436,ac.mi@outlook.com,Fermentum Fermentum Arcu Corporation,Barranca,Paraná,Australia,CH4150737561881564842,No,Ap #135-2958 Maecenas Road
Leilani Ball,(672) 888-7687,donec.non.justo@outlook.couk,Facilisis Suspendisse Commodo Limited,Istanbul,Stockholms län,France,AL86159614888768142121751516,No,191-8811 Enim Street
Christian Brock,(561) 603-7865,tellus.imperdiet@google.net,Luctus LLC,Pangkalpinang,Andalucía,Peru,PL88466673769632276601188893,No,1578 Vel St.
Lynn Roberson,(384) 818-0321,elit.pharetra@icloud.couk,Eget Ipsum Inc.,Puerto Princesa,New South Wales,Costa Rica,LB34250026341778877172364999,No,"Ap #936-1286 Tempus, Avenue"
Lois Sandoval,(905) 551-2062,ut@google.com,Hendrerit A Arcu LLC,Yeongju,Toscana,New Zealand,IL656332792965186433646,No,942-6119 Ipsum. Road
Avram Spears,1-206-241-6033,molestie.pharetra@icloud.couk,Molestie Sodales LLP,Graz,Zhōngnán,Poland,MR2881784725776668466623234,No,Ap #672-7602 In St.
Guinevere Dejesus,1-508-276-7260,sit.amet@aol.ca,Pellentesque Sed Corporation,Koszalin,Vlaams-Brabant,Vietnam,EE185326555317285232,Yes,2955 Lobortis Avenue
Herrod Mccall,1-741-932-8182,ut.quam.vel@yahoo.couk,Velit In Corp.,Kurgan,Tamil Nadu,Vietnam,GE11341915387815538280,No,232-5324 Vivamus Rd.
Farrah Fox,(859) 762-5827,accumsan.laoreet.ipsum@yahoo.net,Lorem Luctus Ut Incorporated,Lagos,New South Wales,Philippines,LI0887958049734224162,Yes,Ap #143-4866 Mi Road
Lillith Roach,1-758-142-4877,at@hotmail.org,Lacus Vestibulum PC,Nueva Imperial,Akwa Ibom,Netherlands,ME91424728781678091891,No,Ap #965-2245 Nulla Av.
Dominic Dotson,1-894-429-4615,arcu.morbi@yahoo.net,Nisl Nulla PC,Goes,North Island,Indonesia,NO1555629118851,Yes,"P.O. Box 985, 4015 Vivamus Av."
Kennedy Meyer,1-402-233-1653,dignissim.lacus.aliquam@google.ca,Libero Donec LLC,Jiangsu,Jönköpings län,Canada,SI27014378262231127,Yes,Ap #387-1363 Maecenas St.
Noel Sweeney,(388) 201-8577,aliquet@aol.ca,Tincidunt Donec Industries,Kalgoorlie-Boulder,FATA,Italy,LT192335162343074358,Yes,368-573 Nisi Road
Logan Irwin,(107) 116-0424,tellus.nunc@aol.org,Laoreet Libero Incorporated,Tarakan,Kaluga Oblast,Pakistan,PK2192784567738159209818,Yes,"P.O. Box 360, 759 Mollis Rd."
Hashim Wyatt,1-484-898-7865,tempus@yahoo.net,Consectetuer Mauris Incorporated,Mercedes,Banten,Nigeria,IT844NWDAI75778751834689811,Yes,Ap #751-7810 Odio. St.
Gavin Norman,(461) 355-8749,ullamcorper.nisl.arcu@outlook.com,Magna Cras Limited,Guaymas,Western Australia,Mexico,BE11642441915408,Yes,323-5378 Phasellus St.
Hu Duran,1-346-355-0864,dolor.sit@icloud.org,Ullamcorper Velit In Corporation,Baden,Hessen,South Africa,GB70PKLW87373086942525,No,Ap #963-9126 Vitae Av.
Hayes Fischer,(461) 745-5607,ullamcorper.velit@yahoo.ca,Scelerisque Dui LLP,Murmansk,Valle del Cauca,Russian Federation,GE86609258837262847381,No,Ap #818-8707 Nulla Rd.
Plato Whitley,(163) 616-1913,pellentesque@outlook.com,Erat LLC,Lim Chu Kang,Bihar,Norway,SA5952111256328029857742,Yes,106-2642 Quis St.
Angela Benjamin,1-726-281-0806,fringilla.porttitor@protonmail.couk,Nulla Magna Malesuada Limited,Mjölby,Novgorod Oblast,Poland,LV19MKHC1487552743023,No,749-5557 Velit Street
Helen Hurley,1-641-871-5142,ut.tincidunt.orci@outlook.org,Massa Lobortis Incorporated,Jecheon,Bursa,Germany,CY20321114641520044746382049,No,Ap #925-1089 Justo Road
Alyssa Harmon,(993) 316-0672,donec.fringilla@protonmail.couk,Praesent Consulting,Ipiales,Vestfold og Telemark,China,MU6178089230243256311838473683,No,"P.O. Box 777, 3867 Cursus Av."
Yael Ruiz,(382) 721-5583,fusce@icloud.ca,Tincidunt Ltd,Hồ,Arequipa,Vietnam,SI41162850566414753,No,140-4566 Nunc Avenue
Kennan Vance,1-602-775-1370,nec.imperdiet.nec@icloud.com,Etiam Ligula Incorporated,Heilongjiang,Kocaeli,Turkey,BG19VGMG86747739484777,Yes,730-8985 Fusce Av.
Dawn Sharp,(321) 953-1258,rutrum.urna.nec@hotmail.net,Eu Foundation,Burgos,Troms og Finnmark,Australia,LI3989033601196387063,Yes,802-2996 Ac Avenue
Karly Crosby,(912) 323-4522,adipiscing.enim@protonmail.com,In Faucibus Orci Corp.,Metro,FATA,France,GE62851864356713136068,Yes,Ap #983-5937 Libero. St.
Isaac Chase,1-141-341-8425,urna.suscipit@icloud.ca,Elementum Corporation,Ladysmith,Quebec,Russian Federation,GR1258424767338012134746524,No,Ap #690-4320 Accumsan Road
Ronan Cox,(618) 642-7852,magnis.dis.parturient@protonmail.couk,Vehicula Pellentesque Corporation,Lillehammer,Guanacaste,Australia,SA6208339345844679605869,No,"P.O. Box 871, 609 Aenean Rd."
Summer Cross,(535) 892-8654,nam.interdum@google.ca,Etiam Ligula Tortor Foundation,Tejar,Paraíba,Indonesia,GI40HJJW081476616817361,No,1828 Ipsum. St.
Jillian Mccarty,1-107-735-8655,proin.mi@icloud.couk,Duis Industries,Edmundston,Tyrol,Russian Federation,SA7482670013431824978626,Yes,"P.O. Box 956, 1810 Montes, Road"
Eleanor Schneider,1-885-870-1458,hendrerit.id@yahoo.edu,Id PC,Uzhhorod,Lorraine,Indonesia,SE9393036830736736469544,Yes,392-5864 Est. Avenue
Maile Hanson,1-756-421-3570,diam.proin.dolor@outlook.com,A Institute,Montes Claros,South Chungcheong,France,BH77595473654662230153,Yes,Ap #647-5567 Magna. Avenue
Brianna Howard,(342) 324-4395,neque.sed.dictum@yahoo.net,Nunc Laoreet Company,New Glasgow,Cartago,Belgium,KW9487523753243562071231147127,Yes,"P.O. Box 432, 9304 Et, Rd."
Nelle Nash,1-330-513-8779,magna.ut@google.com,Leo In PC,Trujillo,Queensland,Belgium,CR4714481938451851140,Yes,755-742 Quisque Street
Stephen Lott,1-436-304-6213,mattis.semper@yahoo.couk,Mi Eleifend Egestas Foundation,Vezirköprü,South Gyeongsang,Brazil,CY48963328773384941511441488,No,5669 Orci Avenue
Ezekiel Vega,1-228-538-5331,purus.sapien@hotmail.com,Sit Amet Corp.,Pskov,Vestland,Vietnam,AT328132737531052333,No,"P.O. Box 524, 5988 Non, Ave"
Melvin Oliver,(128) 746-0933,libero.proin@aol.edu,Nec Incorporated,Amersfoort,La Libertad,Brazil,DE58048674723557835729,No,"437-8583 Nec, Rd."
Aimee Byrd,1-397-242-7242,ultricies@outlook.edu,Consectetuer Mauris Id Incorporated,Vergnies,Valle del Cauca,Sweden,ES5270639558323289914381,Yes,965-9309 Ipsum Avenue
Uta Clemons,(757) 417-8349,ligula@hotmail.couk,Eu Industries,Minna,Munster,Colombia,LT223154745376542067,No,902-6877 Lacinia Rd.
Troy Hart,1-374-453-4667,dolor.donec@outlook.ca,Pellentesque Ut Ipsum Corporation,Medellín,Gyeonggi,New Zealand,PK5626466120053851601454,No,4561 Eget Road
Whilemina Hickman,1-541-633-2293,convallis.convallis.dolor@icloud.couk,Fringilla Donec Feugiat Incorporated,Pontypridd,Victoria,Canada,LI4503583274303717553,Yes,891-9367 Cursus Rd.
Hedda Robinson,(904) 535-5709,aliquet@yahoo.ca,Purus Limited,Stellenbosch,Amur Oblast,United States,MU4115522824020711368854643262,Yes,"665-2575 Orci, Rd."
Roary Price,(634) 945-3738,fringilla.mi@yahoo.edu,Nisi Sem Industries,Roxas,Waals-Brabant,Belgium,BA714467273625131225,No,676-4905 Porttitor Road
Kyra Brewer,1-725-245-0671,nec.ante@icloud.org,Nunc Incorporated,Geertruidenberg,Northern Mindanao,South Korea,NL89LQTD5141799127,No,Ap #978-5671 Semper Rd.
Jerome Washington,1-962-249-4885,fusce.dolor.quam@icloud.couk,Nec Luctus Felis Associates,Arequipa,Caraga,Costa Rica,KZ807548146985768665,No,Ap #606-714 Volutpat. Av.
Demetrius Ballard,1-388-772-7509,et.magnis.dis@google.ca,Fusce Diam Corp.,São José,Distrito Capital,Nigeria,EE531081454373862136,No,994-5746 Lorem Ave
Dylan Howell,(229) 661-5266,mauris.aliquam@hotmail.edu,Interdum Feugiat Company,Pocatello,Bengkulu,Australia,MR9388523281487325374467405,No,443-1974 Diam. Rd.
Adara Spencer,(325) 897-6815,et.commodo@icloud.org,Nam LLC,Sevastopol,Newfoundland and Labrador,Russian Federation,LU828711603370362357,Yes,Ap #491-1343 Nam Ave
Breanna Campbell,1-143-183-0127,molestie.in@icloud.edu,Ut Quam Vel LLC,Mérida,Arkhangelsk Oblast,Turkey,NL59YRYN2464153226,Yes,"967-9723 Tincidunt, Rd."
Camden Mccarthy,1-865-417-7477,mauris.non@yahoo.net,Eu Inc.,Stralsund,Chernivtsi oblast,Singapore,AE412851568914270131255,No,200-551 Ligula. Avenue
Jamal Chavez,1-875-770-2154,amet@outlook.com,Donec Nibh LLP,Lago Ranco,Limón,Chile,PS757571418814888954794376458,Yes,"7163 At, Ave"
Arthur Mack,1-527-731-6897,elementum.purus@icloud.edu,Et Ultrices Corporation,Samara,Bangsamoro,Vietnam,BE63234233556824,No,"Ap #344-8273 Tincidunt, Road"
Megan Dorsey,(103) 612-8927,donec.vitae@outlook.net,Eros Proin LLP,Glovertown,Emilia-Romagna,Costa Rica,LT331417765131688877,No,Ap #909-4598 Magnis Street
Maya Sawyer,(634) 828-8716,nulla@protonmail.edu,Sed Neque Sed Incorporated,Wunstorf,Khmelnytskyi oblast,Vietnam,LV33YTFQ3397864773792,No,5693 Mauris Av.
Macaulay Dunlap,1-352-734-7429,lectus@aol.couk,Semper Rutrum Industries,Lambayeque,İzmir,Sweden,PS878192813375737217757438438,Yes,758-1161 Aenean Ave
Gannon Kirkland,(262) 833-0817,euismod.est@yahoo.edu,Nec Consulting,Manukau,Viken,South Korea,CZ4088755183296224704783,No,950-8663 Libero Rd.
Brandon O'connor,1-618-878-3305,et.magnis.dis@outlook.couk,Purus Consulting,Bauchi,Central Luzon,Spain,MR0435110263687984448403190,No,440-6258 Litora St.
Renee Matthews,(268) 746-7429,penatibus@protonmail.org,Bibendum Incorporated,Putre,Nova Scotia,Pakistan,BG54ZFPR80824810426463,Yes,442-3978 In Street
Daryl Garner,1-124-511-0458,ut.pharetra.sed@outlook.net,Auctor Mauris Vel LLP,Sakhalin,Magadan Oblast,Costa Rica,SI72327587273468485,No,9546 Aliquam Road
Zorita Waller,(122) 789-7285,imperdiet.erat@aol.net,Nunc Ac LLP,Ostellato,Sardegna,Austria,HU04684512610253721786667073,Yes,"P.O. Box 271, 7978 Nibh. Road"
Raphael Terrell,(891) 873-3178,amet.ornare@hotmail.org,Ut Nulla LLC,Bukit Panjang,Kyiv oblast,Chile,LI1128325527985612035,No,"P.O. Box 357, 6291 Amet, Av."
Malachi Rosales,(291) 348-1512,egestas.fusce@google.net,Semper Pretium Neque Incorporated,Ipiales,Sardegna,Brazil,HR2078988960392869118,Yes,Ap #339-3767 Ornare Street
Emery Maynard,(112) 746-9287,nullam.vitae@outlook.org,Lobortis Incorporated,Limón (Puerto Limón],New Brunswick,Spain,GR9326473571422243376873122,Yes,Ap #580-5354 Etiam Avenue
Ginger Saunders,1-734-622-5783,rutrum.justo.praesent@google.ca,At Lacus LLC,Gisborne,Dnipropetrovsk oblast,Costa Rica,PK8703284154578823163502,No,"P.O. Box 885, 7915 Nullam Avenue"
Castor Vasquez,(712) 378-7230,leo@google.org,Lorem Auctor Ltd,Hofors,Rheinland-Pfalz,Australia,LV25UWIW6823517658402,Yes,"P.O. Box 161, 3570 Eget, Avenue"
Lucius Bush,(426) 312-0376,ligula.aliquam.erat@hotmail.ca,Nascetur Ridiculus Industries,Lipa,Saskatchewan,Ireland,HU84224235727134184132469435,No,252-6593 Sem. Road
Dawn Mcgowan,1-167-936-7630,feugiat.tellus@aol.ca,Varius Nam Porttitor Limited,Oslo,Alajuela,South Africa,GT45976071260904576563967620,No,731-2656 Pellentesque Rd.
Lester Clayton,1-746-638-0288,libero.donec@google.net,Scelerisque Industries,Ceyhan,Tyrol,United States,GI77GGED450771178529685,Yes,"389-2667 Leo, Rd."
Salvador Cameron,1-538-651-8760,montes.nascetur@google.couk,Enim Etiam Ltd,Rzeszów,South Island,Canada,CH4423888933312258334,No,578-5875 Sed Ave
Edward Hinton,(699) 773-5457,nam.ligula@icloud.com,Tempor PC,Oudtshoorn,Karnataka,Turkey,MD1711227366523695263861,Yes,Ap #526-8800 Hendrerit St.
Lani Medina,1-546-473-2859,nunc@icloud.org,Mauris Ipsum PC,Piura,Opolskie,Ukraine,IS758440356668785148670354,Yes,Ap #194-8262 Ac Road
Ivana Jennings,1-461-886-0268,mollis.non@hotmail.net,Nonummy Ac Inc.,Ulloa (Barrial],Valparaíso,Philippines,MU2232407839946341426197848103,Yes,105-1893 Metus. Av.
Lacota Aguirre,(577) 146-8790,a.tortor@protonmail.com,Netus Et PC,Haguenau,Sinaloa,Belgium,CY49891637270588152327347313,Yes,Ap #868-9874 Suspendisse Ave
Leonard Mendez,(831) 545-4330,donec.felis@outlook.com,Risus Donec Egestas Corporation,Poggiodomo,Voronezh Oblast,South Korea,LU132273618128957788,Yes,"P.O. Box 849, 3693 Elit. Ave"
Darrel Stout,1-279-391-9338,in.molestie@hotmail.com,Mauris Incorporated,Fortaleza,Limburg,South Africa,LT914254286304462538,No,530-8043 Sed St.
Oren Graham,(107) 247-5547,ante.blandit@protonmail.net,Ultrices Iaculis Institute,Istanbul,Luxemburg,Australia,SE2632143097581273264758,No,Ap #668-880 Nulla Rd.
Samson Mitchell,1-402-875-9195,condimentum.donec@icloud.ca,Mollis Vitae Limited,Wanzele,Brussels Hoofdstedelijk Gewest,Indonesia,DK9256625552417554,Yes,303-2795 Amet Road
Erasmus Hoffman,1-617-874-2562,mus.aenean@hotmail.org,Nulla Integer LLP,Emalahleni,South Island,Ireland,AZ40878327044167011253147163,Yes,Ap #259-1982 Sodales St.
Driscoll Pena,(321) 772-3611,donec.dignissim.magna@protonmail.net,Sed Nunc Est PC,Palencia,Extremadura,Spain,PK1048114844716438468372,Yes,1038 Mauris Ave
Carlos Carroll,1-365-567-7104,eu.ultrices.sit@hotmail.ca,Curabitur Institute,Imperatriz,Balochistan,Russian Federation,KZ983322612681905075,Yes,"P.O. Box 167, 4946 A Av."
Minerva Navarro,(421) 377-3171,nulla.aliquet.proin@aol.com,Dolor Egestas Rhoncus Inc.,Ichtegem,Roxburghshire,Turkey,MU2731494291272446218285139894,Yes,6264 Turpis St.
Preston Hammond,(765) 717-3183,eget@hotmail.net,Dui Nec Industries,Uberaba,Pernambuco,Mexico,BH25339844137487454136,No,"8988 Sed, Ave"
Marvin Suarez,(632) 657-1176,nisl.nulla@icloud.net,Morbi Quis Urna Associates,Magangué,Cagayan Valley,Belgium,DE81981141941364224042,No,657-4439 Accumsan Road
Cameron Hoover,1-448-988-6069,massa.mauris.vestibulum@hotmail.net,Ultrices Posuere Industries,Mornimont,Pará,Pakistan,SE6604814874719643997312,Yes,Ap #893-917 Nulla Av.
Gil Nicholson,1-880-796-2617,pede@protonmail.org,Ipsum Incorporated,Coevorden,Lagos,Poland,BA431904417745226135,No,Ap #435-6634 Donec Rd.
Brendan Sargent,1-791-978-9498,non.lorem.vitae@aol.ca,Metus Vitae Associates,Gary,Huádōng,United States,BA735830650382068325,No,"P.O. Box 719, 4804 Mi, Avenue"
Minerva Cannon,(653) 606-7528,ante.dictum.cursus@hotmail.org,Non Justo Proin PC,Chandigarh,Paraíba,United Kingdom,GT51647505375974648165573681,Yes,Ap #916-7193 Tempus St.
Francis Todd,(185) 674-9462,donec@google.ca,Est Associates,Pereira,Caraga,Pakistan,KZ257270322431722204,No,684-8352 Natoque Ave
Simone Doyle,(713) 501-3576,ac@google.ca,Porttitor Vulputate Posuere PC,Heerenveen,Marche,Turkey,GL3712235082180180,No,357-9110 Tempor Rd.
James Franco,(381) 666-9976,magna.sed@hotmail.com,Suscipit Consulting,Bogor,Imo,Indonesia,BE90478135451457,No,Ap #423-844 Augue Ave
Edward Howe,1-664-585-6240,orci.sem@hotmail.net,Tincidunt Neque Inc.,Bauchi,Bangsamoro,Germany,TN4583598861741330258177,Yes,411-3413 Tellus. St.
Yuli Head,(461) 422-1016,hendrerit@google.com,Molestie Tellus Incorporated,Kryvyi Rih,Central Luzon,Peru,GI78LXSU936827155216287,Yes,"Ap #207-9763 Placerat, Ave"
Iliana Frazier,1-656-971-3663,vitae@google.couk,Vivamus Molestie PC,Warren,Hatay,Canada,GE15505818681886757341,No,Ap #296-940 Consequat Ave
Vaughan Davidson,(203) 744-3473,nec.enim.nunc@icloud.ca,Adipiscing Institute,Yeongju,Gelderland,Canada,VG7983182386578427073995,No,379-598 Donec Avenue
Davis Randall,(788) 920-5434,mollis.non@icloud.edu,Pede LLP,Sandnessjøen,Nova Scotia,Costa Rica,SK4931255792521329257051,No,481-4787 Aliquam Rd.
Ciaran Compton,1-211-764-5783,fermentum.vel@yahoo.couk,Dictum Proin Company,Codó,Lâm Đồng,Brazil,AE310595821991014576321,No,"555-8621 Rutrum, Avenue"
Solomon Charles,(835) 669-5798,consequat@google.org,Faucibus Ut Industries,Istanbul,Northern Cape,Singapore,MR4383757510755691963281222,No,Ap #749-6573 Aliquam St.
Dalton Hampton,1-811-734-0932,mauris.rhoncus@hotmail.ca,Nulla Dignissim Maecenas Corporation,El Tabo,Midi-Pyrénées,Mexico,MR1564003166442855627435352,No,Ap #641-1149 Risus St.
Hilda Maynard,(878) 467-2482,tincidunt.nunc.ac@outlook.ca,Id Enim LLC,Pasir Ris,Uttar Pradesh,Nigeria,SA2515452835752634593183,Yes,Ap #681-3429 Venenatis Avenue
Clinton Patel,1-148-260-8335,integer.aliquam@outlook.ca,Mattis Integer Associates,Bida,Molise,Peru,TR592043875171567498842526,Yes,Ap #277-8374 Aliquam Street
Anika Horn,(474) 730-7243,blandit.nam.nulla@icloud.ca,Lorem Auctor Incorporated,Indianapolis,Paraná,Mexico,TR698303516987824238863153,Yes,5732 Ac Avenue
Todd Simmons,(566) 671-5443,interdum.curabitur.dictum@google.couk,Mauris Rhoncus PC,Oosterhout,Cao Bằng,India,DE30575127854507661679,Yes,Ap #979-314 Luctus Av.
Jillian Miller,(322) 807-8614,sed.est@google.org,Nec Ante Blandit PC,Klerksdorp,Alsace,Italy,DE60315556224753476920,Yes,129-7081 Metus. Street
Farrah Merritt,(329) 454-1692,in.lobortis@protonmail.edu,Enim Non PC,Chuncheon,North Gyeongsang,United States,MC1557927389965312936163123,No,Ap #270-1291 Amet Ave
Brooke Koch,1-593-614-4748,tristique@hotmail.edu,Purus Ac Institute,Tehuacán,Bauchi,Turkey,IT986HGIII56304133557646692,No,Ap #510-4850 Eu St.
Martha Robbins,1-848-335-7888,ante.bibendum@icloud.org,At Augue Id Corp.,Austin,Suffolk,United States,CZ7868288281248040752262,No,7392 Ultricies Rd.
MacKenzie Sweet,1-430-750-8226,metus.in@protonmail.com,Lorem Tristique Aliquet PC,Memphis,East Region,United States,MT06WBEY53218389748457435447865,Yes,161-7711 Non Rd.
Samantha Mccarthy,1-357-415-1448,metus@outlook.net,Praesent Ltd,Dutse,Prince Edward Island,South Africa,FI8934264552773661,No,Ap #483-678 Lacus. Ave
Harlan Salas,1-685-661-5772,ultricies.adipiscing@google.edu,Mollis Corporation,Sicuani,Styria,China,BA692817627966630182,Yes,"5890 Mi, Road"
Tanisha Long,(168) 853-1187,in.at@icloud.net,Dignissim Magna A Corp.,Gia Nghĩa,Thái Nguyên,Ireland,MK25241687326339878,Yes,"493-2486 Cursus, Avenue"
Leila Farley,(733) 618-1167,enim@icloud.net,Enim Etiam Incorporated,Markkleeberg,Gauteng,Chile,LV40GHVB7718141579416,Yes,537-8778 Justo. Ave
Colorado Guerrero,(657) 458-6076,sagittis.nullam@yahoo.couk,Orci Consectetuer Ltd,Szczecin,Eastern Visayas,Spain,TN7485666668613811246896,Yes,7326 Dis Road
Caldwell Deleon,1-958-451-5797,urna.nullam.lobortis@google.org,Phasellus Associates,Quillón,Cajamarca,Belgium,PK1565745419195524047343,Yes,"P.O. Box 419, 6733 Hymenaeos. St."
Josiah Rodriguez,(584) 448-5875,pretium.et.rutrum@icloud.com,Urna LLC,Rostov,Guanacaste,Peru,LB82326467648537964641166272,No,551-5482 Nibh. Ave
Murphy Webster,(831) 523-3644,at.arcu@aol.com,Cum Sociis Corp.,Elbląg,Veracruz,Indonesia,ES8203187658432293639554,No,Ap #872-5320 Eleifend. St.
Rudyard Beach,1-243-541-1717,praesent.eu@yahoo.edu,Nulla Eu Neque Corporation,Barrhead,Limón,Ukraine,FR5501854938377174671428697,No,Ap #256-7251 Nam Av.
MacKensie Melton,1-356-792-7386,purus.sapien@aol.ca,Mauris Blandit Mattis Consulting,Khmilnyk,Sinaloa,United States,IS716245680148818531211764,No,"P.O. Box 967, 3816 Non St."
Dylan Delaney,(672) 666-3853,ante@hotmail.couk,Dictum Eu Ltd,Castel Maggiore,An Giang,Belgium,NO7689523508623,Yes,"P.O. Box 174, 6924 Diam. Rd."
Carter Harrington,(764) 713-6403,adipiscing@google.ca,Nisi Mauris LLC,Farsund,Lambayeque,South Africa,SK1650052513616833164134,Yes,703-4652 Ligula Road
Bell Mack,1-555-171-2738,ultricies@icloud.net,Sit PC,Iquitos,Quảng Ninh,Philippines,CY55989177777352779781483668,Yes,"906-483 Nec, Av."
Emma Justice,1-845-285-3263,libero.dui@outlook.net,Interdum Nunc Corporation,Matamoros,Bahia,Nigeria,BH95949232248423403152,Yes,"P.O. Box 986, 2839 Eu, Street"
Melvin Vinson,(348) 346-2480,morbi@aol.org,Dolor Dapibus Associates,Grahamstown,Ulster,Ireland,TN9065767980766636462409,No,"Ap #166-4072 Montes, Rd."
Nyssa Mcfarland,1-514-624-7401,proin.eget.odio@aol.net,Mauris Erat Ltd,Hunan,Atlántico,Spain,LB47917889252141457854169747,No,Ap #793-9472 Ultrices Rd.
Georgia Key,(459) 244-6080,velit.eget@yahoo.edu,Accumsan Laoreet PC,Dublin,Coahuila,Singapore,FR5618131383360114263371281,No,"P.O. Box 992, 7920 Magna. Avenue"
Xanthus Simmons,1-410-228-8488,urna@icloud.org,Consectetuer Limited,Cork,North West,Pakistan,NL58GAFD6620341018,No,470-6792 Sapien Rd.
Blaze Tran,1-845-828-0252,sem.magna.nec@protonmail.com,Turpis Nulla LLC,Alchevsk,Antalya,Sweden,SI49427874787785486,Yes,"Ap #232-6235 Nec, Ave"
Dahlia Carrillo,(276) 759-4693,augue.ac@outlook.edu,Odio Etiam Associates,Cartagena del Chairá,West Papua,France,ME20821252817577275886,Yes,523-5552 Ligula St.
Darryl Miranda,(880) 886-2344,sociis@outlook.couk,Nunc Laoreet LLP,Honolulu,Southwestern Tagalog Region,Pakistan,FO6376685166416673,Yes,6115 Aenean Av.
Ebony Mcmillan,(312) 503-4268,at.lacus@icloud.net,Mus Aenean Eget Limited,Pachuca,Bursa,South Korea,MK15636895341085560,Yes,"725-4848 Est, St."
Sara Rush,(216) 814-2535,nec@aol.ca,Erat Volutpat Nulla Corp.,Korba,Luik,Canada,NO5457158637138,No,744-5351 Facilisis Avenue
Unity Coleman,1-213-951-8228,luctus.sit@outlook.com,Lobortis Quis Consulting,Heredia,Tver Oblast,Ukraine,RO54DRJH3216143323458226,No,Ap #943-4571 Erat. Street
Kermit Walls,1-252-654-1151,nullam.vitae.diam@hotmail.org,Bibendum Sed Incorporated,Altach,Swiętokrzyskie,Nigeria,AZ87362678784138332707075411,No,943-9449 Sed Ave
Melanie Crawford,1-695-638-7957,ut.dolor@outlook.couk,Donec Porttitor Incorporated,Opole,Cauca,South Africa,SI63284859445525387,No,503 Nunc Ave
Blythe Lane,(653) 673-2012,orci.phasellus@protonmail.edu,Felis Nulla PC,Francavilla in Sinni,Podkarpackie,Mexico,FR2054336162408784183282028,Yes,Ap #545-8210 Risus. St.
Emery Holt,1-942-148-3835,feugiat.placerat.velit@outlook.ca,Nec Luctus Felis Incorporated,Valledupar,North Jeolla,Russian Federation,VG7686101493037665060862,Yes,642-9511 Donec Street
Garrett Howe,(772) 663-3596,cras.vulputate@google.com,Bibendum Fermentum Metus Corporation,Logroño,Toscana,Brazil,DO51961533251166172886698053,Yes,"P.O. Box 188, 4577 Fringilla Av."
Neve Holt,(733) 265-5886,nullam@aol.org,Ac Industries,Bắc Giang,Östergötlands län,Nigeria,MT30HUEO14834530209654417768363,No,Ap #777-9985 Enim St.
Isabelle Duke,1-316-688-6806,urna.vivamus@hotmail.couk,Tempus Scelerisque Associates,Odda,Burgenland,Nigeria,KW6496435253571237728444165210,No,2963 Porttitor Rd.
Emerald Stark,(464) 806-7980,malesuada.id@icloud.com,Lacus Institute,Valcourt,Castilla y León,South Korea,SI52410005620358423,Yes,Ap #236-2961 Ac Ave
Sophia Sweet,(114) 724-8775,mattis.semper@icloud.org,At Institute,Velden am Wörther See,Heredia,France,TN2848581885956425607569,Yes,"699-2936 Vitae, Rd."
Warren Mclean,(566) 657-5318,tristique.senectus.et@protonmail.edu,Cum Corp.,Qinghai,Uttar Pradesh,Pakistan,IT236QFVJI23670438761633583,Yes,Ap #250-6889 Semper Street
Lee Deleon,(740) 322-6587,lorem.donec@hotmail.org,Morbi Metus Vivamus Corporation,Mount Isa,Ankara,Pakistan,CR5300236974182758207,Yes,6576 Proin Rd.
Regina Carver,1-512-425-5537,non.dapibus.rutrum@google.couk,Condimentum Inc.,Yopal,Free State,New Zealand,IE80KOBG37267666466725,No,165-5326 Sed St.
Adena Santana,(493) 268-6487,lobortis.nisi@protonmail.couk,Tellus Aenean Inc.,Motala,Canarias,Colombia,SK6183172948238258409352,Yes,Ap #387-3839 Mi Avenue
Kennedy Mclaughlin,1-192-271-5165,molestie.in@aol.edu,Eros Turpis Corporation,Kempten,Chocó,Sweden,GT96583369187462623459736364,Yes,138-478 Tempor Road
Tanisha Curtis,1-412-715-1265,ante.ipsum@icloud.edu,Sed Molestie Inc.,Cles,Baden Württemberg,Chile,DE60394302227274556223,Yes,Ap #667-6374 Id St.
Nyssa Foreman,(691) 453-2592,fames.ac@icloud.com,Eu Augue PC,Jiangsu,Zhōngnán,South Africa,RS13331974578572264583,Yes,"573 Imperdiet, St."
Halla Trevino,(234) 699-0871,nulla@google.org,In PC,Mulhouse,Zachodniopomorskie,Chile,GI11JSFJ337781209382876,Yes,"P.O. Box 481, 2309 Iaculis Av."
Ignacia Ross,1-164-754-7487,ut.cursus@icloud.net,Eget Volutpat Ltd,Oldenzaal,South Australia,India,BH54395108121469756741,No,750-623 Eu Street
Rowan Hood,(684) 811-8941,lorem@hotmail.com,Nunc Ac Associates,Bydgoszcz,Goiás,Poland,GT82974419385752210189231452,No,185-3601 Quisque Ave
Dacey Powell,(565) 851-6835,fusce.feugiat.lorem@hotmail.ca,Ullamcorper Corp.,Puntarenas,Atacama,South Africa,MK09781649373881221,Yes,"Ap #481-7495 Dolor, Street"
Yen Macias,(717) 617-6652,justo.nec@yahoo.couk,Pharetra Nibh Foundation,Çaldıran,Michoacán,Sweden,NL24IRMG2824626318,No,"Ap #120-3494 Non, Rd."
Quynn Roberson,1-853-775-4067,velit@protonmail.net,Ultrices Inc.,Beijing,Quảng Bình,Belgium,BA571813116027727302,Yes,396-3989 Sit Road
Graham Andrews,1-457-811-1858,dis@google.ca,Est Ac Foundation,Tarnów,Møre og Romsdal,Belgium,EE160250803388205127,No,"P.O. Box 155, 8723 Dictum Ave"
Tiger Sheppard,(346) 235-8333,eget.odio@protonmail.couk,Egestas Aliquam Nec Associates,Comblain-Fairon,Mexico City,Brazil,KZ158474437403054235,Yes,Ap #312-4154 Congue Av.
Regina Sampson,(103) 575-2755,vel.sapien@yahoo.couk,Lacus Mauris Non Associates,Fujian,Lazio,Australia,LB63563878364724422746788423,Yes,565-8103 Cursus Av.
David Fletcher,1-538-648-6107,lacus.cras@icloud.ca,Neque Foundation,Sokoto,Northern Mindanao,United States,AL97737723561362148897544608,No,660-3903 Tincidunt St.
Zeph Shaw,(692) 378-2645,etiam.vestibulum.massa@aol.couk,Faucibus Limited,Morelia,Santa Catarina,Singapore,TN5331323586307433868211,Yes,Ap #809-1514 Magna. Road
Blossom Holland,(701) 968-5674,fringilla.ornare@google.com,A Mi LLP,Hamburg,Vestland,Netherlands,TN8623731459531388314381,Yes,Ap #466-3966 Purus Road
Tiger Buck,(861) 302-8458,dictum@aol.org,Non LLC,Pamplona,Noord Brabant,India,KZ035773651974440639,No,6738 Malesuada Av.
Rooney Foreman,1-422-508-6223,aenean.sed@hotmail.edu,Aliquet Nec LLC,Crato,Saskatchewan,Brazil,GT03536522102780557527310467,Yes,"P.O. Box 507, 9981 Non Ave"
Brennan Hoffman,1-336-285-1436,non.leo@protonmail.ca,Lacinia Orci Consectetuer Incorporated,Little Rock,Imo,Canada,IT485RXAFI16029433476229861,Yes,"P.O. Box 348, 6572 Non, Avenue"
Irma Moran,1-298-629-5247,nunc.ullamcorper@hotmail.com,A Facilisis Corp.,Ulundi,Pernambuco,Chile,BE44353527365829,No,687-6182 Consectetuer Road
Erich Rhodes,1-334-305-8238,mauris@icloud.couk,Urna Industries,Gilgit,Saarland,Peru,CZ2216876290182915758107,Yes,4565 Fringilla Street
Emma Hurst,(902) 152-1725,egestas@google.ca,Arcu Ltd,Aberystwyth,Xīběi,New Zealand,AL80537450687733773165842765,Yes,"285-699 At, St."
Thor Ward,1-107-117-3718,cras@google.couk,Iaculis Aliquet Industries,San Juan del Río,Western Visayas,Ireland,FI2393484483643383,Yes,Ap #900-1194 Massa. Rd.
Cole West,1-864-881-6404,molestie.dapibus@icloud.couk,Nisl Foundation,Hougang,Hà Giang,United Kingdom,AT492746235883562661,Yes,666-3356 Leo. Street
Lance Aguirre,1-681-153-4273,dolor.fusce.mi@icloud.org,Metus In Lorem LLC,Bukit Batok,Cajamarca,Italy,PS164613224946762377784346575,No,"P.O. Box 421, 5426 Ut St."
Raja Arnold,(741) 441-5272,curabitur.massa.vestibulum@protonmail.ca,Nunc Mauris Company,Kearney,South Australia,Colombia,AE178537540048458415685,No,313-2615 Lacus. St.
Ross Patton,(955) 316-5388,mollis@protonmail.ca,Phasellus Dolor Elit PC,Windsor,Rogaland,Australia,BE79468113741261,Yes,268-9846 Nec St.
Tyrone King,(456) 809-3543,magna.suspendisse@icloud.com,Gravida Mauris Ltd,Chuncheon,Xīnán,United Kingdom,FR7211571755757440034776572,No,157-6239 Mollis. Rd.
Melodie Mathis,(352) 626-2432,cum@outlook.net,Euismod Mauris Foundation,Val Rezzo,Dōngběi,Sweden,FR2631550240264719140851362,No,762-3224 Risus Road
Kevin Mayer,(949) 205-7173,ac@google.ca,Imperdiet Erat Institute,Nuragus,Araucanía,Spain,IT796MGLAI32486625607322580,Yes,3206 Integer Rd.
Olivia Trevino,1-848-669-2932,arcu.imperdiet@protonmail.net,Dictum Phasellus In Ltd,Ahrensburg,Rheinland-Pfalz,Poland,GR3922362716764419043678774,No,"P.O. Box 248, 1450 Quam St."
Rylee Duke,(462) 201-8580,dictum.eu.placerat@icloud.edu,Eros Ltd,Bragança,Vestfold og Telemark,New Zealand,AE688944989256262589017,Yes,Ap #547-2104 Sed Rd.
Gannon Rocha,1-438-589-1468,convallis.erat@google.ca,Risus Varius Orci Corp.,Springfield,North-East Region,New Zealand,BG83FLAS98657385918327,No,578-5483 Cum Ave
Anthony Fuller,1-982-754-1455,nibh.aliquam@google.com,Tellus Aenean Egestas Ltd,Limón (Puerto Limón],Akwa Ibom,France,CZ2212672149761133557095,No,723-6526 Risus. Ave
Drake Bowen,(612) 425-7679,enim.commodo@hotmail.couk,Pellentesque Massa Associates,Haridwar,Punjab,Singapore,PS405217709565478143640887760,No,"P.O. Box 447, 8047 Fusce Street"
Dahlia Diaz,1-170-173-6308,lacus.etiam@hotmail.edu,Ipsum Incorporated,Penna in Teverina,Australian Capital Territory,Mexico,CH6836353894118316918,No,Ap #781-1612 Ante St.
Josephine Underwood,(795) 856-0452,mauris.a@outlook.com,Tempor Associates,Lithgow,Lakshadweep,Singapore,EE126515837326914459,No,"Ap #126-7625 Pede, Rd."
Gabriel Nelson,1-453-385-0282,nulla.cras.eu@outlook.edu,Ornare Facilisis Consulting,Gelsenkirchen,Trøndelag,United Kingdom,BE02693307612583,Yes,Ap #205-8558 Metus. St.
Sara Mcfadden,1-865-920-5335,vitae.dolor@yahoo.ca,Amet Faucibus Ut Ltd,Tuy Hòa,Jönköpings län,Spain,SE6438354385838492548877,No,550 Senectus Rd.
Amela Wallace,1-307-749-5184,nec.orci.donec@icloud.net,Nibh Vulputate Mauris Company,Meux,Basse-Normandie,Ireland,LV64HNKS7050440411161,Yes,Ap #693-4129 Iaculis Avenue
Wanda Gates,(301) 628-5683,a.nunc@protonmail.net,Lectus Limited,Faisalabad,Yucatán,Chile,NO4215817650186,Yes,"565-8513 Non, Rd."
Kirestin Patton,1-553-820-2013,nullam@google.ca,Fringilla Porttitor LLC,Vallenar,Free State,South Africa,LU620312838858821253,No,"P.O. Box 602, 5769 Neque. Rd."
Elijah Tillman,1-427-665-2543,justo.proin.non@hotmail.com,Eget Volutpat Ornare LLC,Paya Lebar,North Island,Pakistan,IL915295235431978888003,No,7597 Arcu. St.
Nomlanga Jordan,1-245-239-6660,cursus.diam@protonmail.ca,Ac Inc.,Castletown,Rivne oblast,Vietnam,AT425417997871777491,No,921-5736 Tempor Rd.
Blythe Sloan,1-684-876-5873,malesuada@hotmail.org,Molestie Dapibus Incorporated,La Dorada,Podkarpackie,Ireland,TR777252211927168623881586,No,6326 Ligula. Avenue
Gabriel Mcfadden,(525) 465-5587,feugiat.tellus@protonmail.net,Donec Feugiat Metus LLP,Mexico City,Vichada,Mexico,CH6827719808343244268,No,Ap #123-7560 Dictum St.
Ariel Buck,(853) 886-3292,in.at.pede@google.couk,Hymenaeos Inc.,Ternate,Central Region,Belgium,AE782233456958505732823,No,Ap #437-8718 Sagittis Ave
Lars Macdonald,(625) 911-7804,vivamus.sit@hotmail.com,Mauris Nulla Integer Ltd,Tielrode,Extremadura,Singapore,GR4337209732066687421204538,Yes,"P.O. Box 231, 1328 Aliquam Rd."
Vielka Kline,1-623-694-3512,adipiscing.lobortis@aol.ca,Non Foundation,Bethlehem,Cesar,United States,MR5386507659333565876964852,No,"862-9050 Ut, Ave"
Myles Dorsey,1-477-855-7102,amet.massa.quisque@yahoo.org,Tincidunt Vehicula Risus Limited,Woodlands,South Island,Canada,LU774311567444911473,No,"P.O. Box 122, 7957 Mollis Road"
Emmanuel Rios,1-331-425-9536,aliquet@outlook.org,Ipsum Phasellus Inc.,Okene,Loreto,Belgium,DE52127723110837463747,No,757-2096 Enim. Rd.
Dominic Woodard,1-785-653-4413,nulla@protonmail.couk,Lobortis LLP,Haridwar,Rivers,Vietnam,GT44256367318714932953603370,Yes,"5670 Ultrices, Street"
Orli Warren,(135) 383-3261,montes@outlook.couk,Arcu Company,Gosnells,North West,Germany,AZ64248438854143880583431963,Yes,"761-7425 At, St."
Velma Vaughan,(489) 991-8570,sit.amet.ultricies@aol.edu,Arcu Sed Et Company,Brugge Bruges,Vlaams-Brabant,Ireland,IL416041848633445547317,Yes,700-1160 Ornare Road
Ariana Duran,(327) 735-1685,sed@protonmail.ca,Dis Parturient Montes LLP,Sembawang,West Region,France,MC5976804781464127715319628,Yes,306-299 Ut Avenue
Omar Nicholson,1-753-115-7341,auctor.velit@outlook.net,Ante Associates,Herdersem,Kayseri,Russian Federation,AD1968327532579619973216,Yes,925-816 Massa Avenue
Wang Welch,(822) 107-7014,vulputate.posuere.vulputate@google.ca,Aliquam Ultrices Iaculis Associates,Compiègne,Sindh,Mexico,LI2049696523289578617,Yes,"Ap #220-9701 Ante, Av."
Kiayada Williamson,(138) 563-9784,vel.arcu.curabitur@google.ca,Tortor Integer Limited,Dublin,Picardie,Nigeria,GI11WAWL393542686346488,No,"872-5902 Non, Ave"
Ryan Wynn,1-776-775-1342,mattis.velit.justo@protonmail.ca,Integer Urna Vivamus Incorporated,Guizhou,Banffshire,United States,IE03BDQH80893476245693,No,557-2028 Egestas Avenue
Xantha Vinson,(531) 474-8171,nisi.a@icloud.com,Quisque Varius Corporation,Tuxtla Gutiérrez,Sevastopol City,India,HR0954631260187753554,Yes,703-7930 Arcu Rd.
Ezekiel Burt,(404) 829-7374,ornare@google.couk,Cursus LLP,Montefalcone nel Sannio,Guainía,Sweden,MK90787889265814661,No,Ap #994-4166 Nonummy St.
Lamar Vang,1-718-532-3542,ante.blandit@yahoo.net,Enim Consequat Associates,Cajamarca,Ceuta,Spain,ES2023359446413550521967,Yes,"P.O. Box 469, 9802 Parturient Street"
Daphne Gordon,(659) 463-2361,vivamus.rhoncus.donec@protonmail.org,Ligula Associates,Wolfsberg,Abruzzo,Chile,MT46SBHL29381267246525475598767,Yes,3296 Per Street
Abigail Mason,1-773-711-4203,sed.dui@icloud.couk,Urna Ut Inc.,Zeist,Xīnán,Austria,MK19967045926221335,Yes,321-6125 Eleifend Avenue
Evelyn Page,(366) 874-4866,etiam.gravida.molestie@hotmail.couk,Sem Eget Massa Institute,Oamaru,Berlin,Costa Rica,BH32765145445312916160,Yes,"P.O. Box 209, 9749 Elit, Rd."
Illana Peck,1-221-662-5333,eu.tellus.phasellus@icloud.net,Aliquam Tincidunt Corporation,Svobodny,Kostroma Oblast,Mexico,TN9518162119550326520869,No,Ap #413-3795 Fusce Rd.
Bertha Leblanc,1-794-317-4601,maecenas.mi.felis@outlook.couk,Nonummy Ultricies Ornare PC,Naumburg,Araucanía,New Zealand,KZ781727985685133442,Yes,Ap #561-9836 Adipiscing St.
Wallace Parks,(741) 559-3868,erat.etiam@google.net,Mi Lorem Vehicula LLP,Sosnowiec,Cartago,Netherlands,NL13KCPW5396375128,Yes,Ap #384-4009 A Av.
Clare Webster,1-373-645-1574,enim.suspendisse@outlook.couk,Vel Arcu Ltd,Ludvika,Morelos,Mexico,AZ15227042335222378962446415,No,"P.O. Box 359, 3274 Donec Road"
Amery Faulkner,(347) 441-5394,convallis.erat@protonmail.edu,Risus Donec Egestas Corp.,Yogyakarta,Dōngběi,Italy,BG51WJKI45882352655039,No,Ap #337-8725 Molestie St.
Adara Wilson,(218) 750-1420,congue.turpis@aol.ca,Lectus Pede Ultrices PC,Okigwe,Zeeland,Pakistan,BE78020157293215,Yes,Ap #958-8607 Dolor. Av.
Kristen Ratliff,(858) 593-3588,faucibus.id.libero@hotmail.edu,Nunc Est Corp.,Bắc Kạn,Sonora,Austria,IS776379781348418897872462,No,"P.O. Box 190, 7829 Magnis St."
Jakeem Mccarty,(541) 282-4158,hendrerit@hotmail.net,Pellentesque Tellus Industries,St. Andrews,Stockholms län,Netherlands,CZ3630633133611293663627,No,609-2978 Pede. St.
Leila Cox,(856) 339-8127,magnis.dis@icloud.edu,Porttitor Eros Foundation,Hoyerswerda,Haryana,Germany,PK4242511437972858345914,Yes,"P.O. Box 730, 8803 Dictum St."
Hamish Terrell,(889) 447-1121,scelerisque.dui@protonmail.org,Vivamus Rhoncus Foundation,Burhaniye,Sumy oblast,Colombia,IE03JCWW39457373421408,No,301-8838 Enim. Rd.
Malcolm Knight,(355) 267-5825,nonummy@protonmail.net,Proin Mi Aliquam Limited,Kidapawan,Stockholms län,Brazil,SE9642644510020867106146,Yes,1614 Eu St.
Suki Hall,1-404-828-5115,egestas.fusce@hotmail.couk,Lobortis Associates,Almería,Małopolskie,Belgium,DK8133268686502694,No,592-9025 Gravida Ave
Colby Russo,1-572-449-1119,nascetur.ridiculus@aol.couk,Fermentum Fermentum Incorporated,Straits View,South Island,Indonesia,NL05JRHF1362774623,Yes,Ap #805-5163 Ut Rd.
Illiana Walters,1-444-952-6209,vivamus.rhoncus@hotmail.edu,Lorem Eu Foundation,Tranås,Ceará,Spain,IL720097661081213732124,Yes,198-7935 Eu Street
Bo Rocha,(419) 668-7162,euismod.mauris.eu@aol.edu,Felis Associates,Imphal,Mazowieckie,Mexico,LB87351437632657556737431694,Yes,"P.O. Box 764, 4316 Ornare Rd."
Mollie Hanson,1-557-384-0366,sit.amet@protonmail.edu,Tristique LLC,Balclutha,Guanacaste,Italy,RO83DLHB5352221691427477,No,605-1315 Nisi St.
Xandra Clemons,(476) 527-5166,et@protonmail.com,Iaculis Lacus LLC,Depok,Huáběi,Pakistan,BA857125155723725678,No,457-7831 Id Avenue
Iliana Sweet,1-744-774-8058,sed.consequat@hotmail.couk,Purus Mauris A Corporation,Levanger,New South Wales,Netherlands,TR227922444106346729237183,Yes,914 Molestie. St.
Ryder Mcdonald,1-935-749-3333,ac@hotmail.org,Lectus Ante Dictum Ltd,Hohen Neuendorf,Västra Götalands län,Mexico,LT545942522621637701,Yes,"3247 Tempor, St."
Gwendolyn Cameron,(382) 617-5827,interdum.sed@yahoo.ca,Ipsum Non Incorporated,Metairie,Newfoundland and Labrador,Vietnam,AZ90215532928461282756355089,Yes,Ap #813-6177 Bibendum. Rd.
Martha Harrell,(603) 873-7518,fringilla.purus.mauris@yahoo.net,Proin Nisl Limited,Ollagüe,Delta,Nigeria,LU112137444784732250,Yes,"338-1288 Amet, Street"
Cally Mueller,1-854-543-8464,tincidunt.pede@yahoo.ca,Lorem Ac Risus Institute,Tarnów,Arizona,Sweden,LI7863610302074647427,Yes,821-5561 Aliquet. Av.
Nayda Osborne,1-253-781-2324,nec.mauris@aol.couk,Tortor At Risus Industries,Bergama,Xīnán,Colombia,SK1806017728724862721155,No,Ap #110-5730 Sed Av.
Kelsey Barrera,(521) 268-6538,aliquam.adipiscing@hotmail.net,Tortor Integer Associates,Chungju,Riau Islands,Canada,PT79445767321124321258818,No,1979 Risus. St.
Shelly Harrell,1-466-984-0440,sem.semper@outlook.net,Suspendisse PC,Uyo,Munster,Singapore,VG0255194735867325624432,Yes,Ap #299-7081 Tristique Rd.
Kato Farmer,1-782-565-0832,ut.pellentesque.eget@aol.ca,Ante Ipsum Inc.,Aguachica,North Chungcheong,Norway,GR2843538685253337081327970,No,Ap #415-143 Dis Rd.
Gage Thompson,(763) 611-1236,ipsum.dolor.sit@outlook.edu,Ridiculus Mus Proin Company,Lebowakgomo,São Paulo,Poland,BH28244425814544034837,Yes,8540 Orci Avenue
Blake Meadows,1-211-477-7752,dui@yahoo.com,Sodales Industries,Yên Ninh,Antioquia,Philippines,MD9638085714055681184321,Yes,453-8077 Nisl. Road
Jerry Blair,1-957-767-0136,id.nunc@protonmail.org,Pharetra Ut Pharetra Company,Tillicoultry,Central Luzon,Ireland,DO69726589745989238406675540,No,968-9209 A St.
Jamalia Pennington,1-845-751-3002,libero.proin@yahoo.org,Risus Varius Orci Consulting,Munger,South Australia,Indonesia,BG91WKRU54643641771276,No,398 Dis Av.
Vincent Silva,(550) 368-3913,ac.ipsum.phasellus@aol.edu,Magna Industries,Mariquina,Overijssel,Norway,VG1344367582196558644414,Yes,Ap #423-9945 Mollis. Street
Elvis Silva,1-636-847-1129,at.egestas.a@google.net,Cras Convallis Foundation,Guangxi,Cartago,Ukraine,LT029064986016059788,Yes,Ap #400-1646 A Av.
Timon Todd,1-782-803-2633,dui.lectus@aol.couk,Erat Associates,Lambayeque,West Region,Philippines,AE057748728281012945676,No,Ap #321-7743 Justo. Rd.
Garrison Trujillo,1-393-433-9629,phasellus@protonmail.org,Cum Associates,Khyber Agency,Sonora,Canada,SA6535170888846219596122,No,Ap #416-7599 Parturient Road
Clio Reilly,1-203-868-3254,lobortis.ultrices@outlook.net,Convallis Est Ltd,Kurram Agency,Moscow City,United Kingdom,DO02673364841615523146512625,No,566-2048 Integer Rd.
Bradley Callahan,(661) 884-5786,venenatis.lacus.etiam@outlook.org,Consectetuer Euismod Est PC,Geelong,Konya,Ukraine,TR644771821225221216729429,Yes,"899-661 Dui, Av."
Sigourney Watts,1-343-153-3184,ridiculus.mus@yahoo.couk,Arcu Vestibulum Inc.,Iksan,Minnesota,India,LB15146654646841766611078533,Yes,"Ap #298-7878 Est, Street"
Walter Rosa,1-567-752-5683,montes.nascetur.ridiculus@aol.couk,Vitae Semper Egestas Foundation,Le Havre,Araucanía,Ukraine,GT98422148661651362219855482,Yes,Ap #737-7010 Eu Road
Sonya Shaw,1-281-812-8637,eu@hotmail.edu,Consequat Enim Diam Corporation,Vienna,Aceh,Netherlands,VG8651697258930762131661,No,527-270 Id Road
Raja Joyner,1-334-429-1470,cursus.non@protonmail.ca,Non Lorem Vitae Foundation,Kimberley,Manipur,Chile,KZ335562634692663026,No,438-4209 Lobortis St.
Noah Watkins,1-259-945-8734,ultricies@icloud.ca,Tincidunt Tempus Risus PC,Raychikhinsk,Hà Giang,Norway,MR0282770371442452443374783,No,997-3472 Donec Road
Zelenia Ward,1-564-627-6267,nec.euismod.in@hotmail.couk,Auctor Non Foundation,Salzburg,Noord Brabant,Philippines,LB26353313893864733411495516,Yes,360-2178 Metus Rd.
Alec Mckenzie,(535) 705-2614,quisque.nonummy.ipsum@icloud.com,Aliquam Ornare Ltd,Whyalla,Nunavut,Indonesia,BE73415707370464,No,"169-7754 Nec, St."
Keane Chavez,1-604-803-7927,pharetra@protonmail.couk,At LLC,Tarsus,Connacht,South Africa,PS567391275862722657121684734,Yes,"P.O. Box 257, 2944 Magna, Rd."
Alan Grant,1-657-109-5880,suspendisse.aliquet@hotmail.org,Malesuada Vel Associates,Chiclayo,Perthshire,Austria,RS71264744730460187446,No,162-6393 Molestie Avenue
Olivia Gilbert,1-670-484-1294,vitae.erat@google.ca,Iaculis Odio Nam Institute,Mitú,Bahia,United States,NL56QBPH6942568641,No,2084 Sed Street
Gavin Velazquez,(787) 365-5454,laoreet.lectus@yahoo.org,Sed Facilisis Vitae Corporation,Haveli,Guanacaste,Germany,CH5343124417385473132,Yes,596-4168 In Road
Mason Olsen,(139) 853-1264,fusce.fermentum@google.com,Sodales Company,Gore,Guerrero,Austria,GL9405522871651970,Yes,Ap #720-8560 Nullam Av.
Germane Dillon,1-907-381-2779,amet.risus.donec@google.edu,Molestie Arcu Inc.,Tengah,Delta,Netherlands,LT458771218346623299,No,6437 Diam St.
Helen Crosby,1-761-622-1543,arcu.eu.odio@protonmail.org,Consectetuer PC,Villa Verde,Quebec,Peru,CZ5578871467164869337824,No,9174 Semper St.
Chaim Mcbride,1-631-642-2287,vitae@outlook.org,Rutrum Fusce Institute,Dir,Volyn oblast,Poland,SM5461515921917402284342279,Yes,173-994 Egestas Av.
Orlando Carver,(684) 858-3602,commodo@yahoo.ca,Tortor Institute,Paya Lebar,Caraga,Russian Federation,HU78281836970337783141831524,Yes,7820 Sed St.
Quail Clay,1-654-434-2985,semper.nam@aol.ca,Eu Euismod Ac Ltd,Gangneung,Maluku,Mexico,VG7202569774339036426172,No,"P.O. Box 212, 7970 Sed Rd."
Orlando Gregory,(639) 104-5967,vitae.erat@icloud.org,Euismod Enim Etiam Ltd,Wałbrzych,Worcestershire,United Kingdom,CR9428583224712532672,No,"P.O. Box 488, 2846 Ipsum Avenue"
Patricia Guerra,(939) 569-8501,ac.libero.nec@icloud.org,Augue Ac Inc.,Clarksville,Bangka Belitung Islands,Indonesia,CZ3196580877546257509810,Yes,7901 Massa. St.
Fulton Francis,1-272-975-6419,ante.ipsum.primis@hotmail.org,Adipiscing Elit Consulting,Juárez,Nunavut,Canada,FR5788717297346817548713178,Yes,Ap #963-9251 Aliquam Street
Jasmine Vasquez,(118) 433-4838,integer@yahoo.com,Euismod Urna LLC,Kashira,Free State,China,EE101761316663123686,Yes,"P.O. Box 286, 8814 Odio Avenue"
Porter Hardy,1-555-667-6468,vitae@google.edu,Enim Nec Tempus Associates,Wedel,Alberta,Brazil,PS772357672197335937351301430,Yes,Ap #118-3970 Mus. Rd.
Libby Hansen,1-848-948-4988,fermentum.fermentum@yahoo.net,Morbi Neque Tellus Associates,San Diego,Västra Götalands län,Spain,GE28782320922882638945,No,Ap #576-3574 Erat. St.
Tobias Ryan,(741) 516-8226,et.ultrices@google.com,Cum Inc.,Waitara,Balochistan,Spain,GR1182718170256434965555222,Yes,514-2252 Diam. Avenue
Chancellor Booth,1-186-877-1175,sit.amet.consectetuer@hotmail.com,Nullam Enim LLP,San Juan del Cesar,South Island,Spain,HR8132816612426566303,No,1712 Egestas. St.
Gareth Finch,(483) 230-1966,lacus.mauris@yahoo.org,Sagittis LLC,Neu-Ulm,Cajamarca,Germany,IL416865401317447603514,Yes,"P.O. Box 473, 4359 Cras Rd."
William Cochran,1-847-213-0515,at.lacus@yahoo.edu,At Pretium Inc.,Knittelfeld,Western Visayas,Turkey,GL9559714631686161,No,Ap #194-8399 Pede. Avenue
Lee Padilla,1-821-961-4871,sed.nulla@outlook.ca,Adipiscing Institute,Melilla,Durham,Sweden,PL76135681263529025806219028,No,"P.O. Box 102, 316 Tempor, St."
Cameron Leonard,1-734-281-2592,morbi.neque@icloud.com,Nec Orci Donec Corp.,General Lagos,Oklahoma,South Africa,HU07689327167497663389217491,No,"P.O. Box 603, 9207 Sociis Av."
Naomi Berg,1-442-648-6472,euismod.in.dolor@protonmail.com,In Consequat LLC,Dublin,Punjab,Costa Rica,PS699334109042556425576160543,Yes,922-1681 Odio. Ave
Marsden Howe,(583) 442-7187,aenean.egestas@aol.edu,Dis Parturient Inc.,Poznań,Arkhangelsk Oblast,Singapore,GR8102981065281777525401558,Yes,1049 Feugiat Av.
Winter Page,1-455-551-6994,phasellus.dolor.elit@google.org,Eros Limited,Baubau,Goiás,United States,SK8272821567718100875460,No,1536 Blandit Avenue
Calvin Williamson,1-936-225-6446,velit.in.aliquet@yahoo.org,Vivamus Molestie LLP,Mackay,Jalisco,Ukraine,CZ5867950795093296095246,No,"P.O. Box 127, 5748 Non Road"
Jada Garrison,1-136-522-3642,non.luctus@aol.com,Sem Elit Corp.,Galway,Los Lagos,Vietnam,TR513702874082847785715613,No,Ap #477-2269 Auctor Av.
Cain Chan,(532) 645-0201,in.felis@outlook.couk,Lobortis Associates,Alexandra,South Island,New Zealand,LB10882765832687166088858325,Yes,Ap #704-2237 Lobortis St.
David Sweeney,1-552-868-7145,dictum.augue.malesuada@yahoo.couk,Metus Foundation,Macau,Lviv oblast,India,CR1033519590205252157,Yes,Ap #475-5206 Purus Avenue
Lucian Bartlett,1-711-781-8896,blandit.viverra.donec@yahoo.couk,Urna Corp.,Folx-les-Caves,Free State,Ukraine,SK6342849551610563391652,No,612-3562 Consequat Rd.
Kieran Castro,(321) 631-8324,urna.nullam.lobortis@outlook.edu,Eleifend Vitae Erat Inc.,Shostka,Styria,Vietnam,TN0648786619629551978559,Yes,751-9950 Eros. Rd.
Quentin Mcconnell,1-775-916-1120,phasellus.ornare@google.couk,Nisi Aenean Institute,Koszalin,Nuevo León,Colombia,PS515828242340615658184846862,Yes,303-2047 Consectetuer Ave
Alexander Mooney,(783) 630-5253,purus@google.edu,Lacus Vestibulum Lorem Company,San Felipe,Sinaloa,Spain,GI49KETN125096405319376,No,"P.O. Box 123, 5363 Erat. Ave"
Jasmine Norman,1-772-898-2057,lorem@hotmail.ca,Suspendisse Company,Hofors,Valparaíso,Peru,PT30713733438386774471416,Yes,Ap #363-3601 Orci Avenue
Emmanuel Evans,1-317-849-7253,tincidunt.pede@yahoo.net,Litora Torquent Per LLP,Chepén,Jeju,Germany,AD3746743703356834523721,No,Ap #586-4296 Mauris Avenue
Lysandra Lott,(580) 765-1367,lectus.cum@aol.couk,Consectetuer LLC,Konin,Sicilia,Italy,IS581351933082415016165790,No,321-6961 Sit Street
Angelica Simon,(818) 298-2131,imperdiet.ullamcorper@hotmail.net,Risus Duis A Corp.,Kharmang,Rogaland,Belgium,IL023518171047153447635,No,"7972 Lorem, Road"
Shelby Whitaker,(326) 150-3956,orci.in.consequat@google.com,Molestie Pharetra Industries,Lelystad,Aquitaine,United Kingdom,FI7615882761201983,Yes,1451 Diam Road
Dane Knapp,1-937-634-9945,ut@outlook.com,Tellus Lorem Foundation,Berlin,Sachsen,Nigeria,SM5561322777334877524621340,Yes,"P.O. Box 735, 6004 Eu St."
Hyacinth Norris,(655) 784-9018,a@outlook.com,Eget Corp.,Trento,National Capital Region,Mexico,GB42KDAH44545831708766,No,595-6784 Dolor Rd.
Desiree Love,(845) 871-4683,dolor@outlook.org,Nunc Ac Limited,Veere,Puno,Pakistan,EE181377744725919297,No,Ap #937-7377 Pharetra. St.
Holmes Stone,(543) 676-9737,varius.nam@hotmail.edu,Urna Ut LLC,Shanghai,Champagne-Ardenne,Netherlands,BG10GYGA00303233578805,Yes,326-1356 Dictum Ave
Giselle Stephens,1-106-384-7775,nunc.ullamcorper@outlook.ca,Bibendum Ullamcorper Duis Incorporated,Lim Chu Kang,Novosibirsk Oblast,Belgium,DO76721667244060833838349159,No,7074 Morbi Ave
Dieter Perry,(354) 667-7866,curabitur.massa@protonmail.net,Et Tristique Limited,Waitakere,Toscana,Philippines,BA385326741322364863,Yes,Ap #500-3292 Eget Rd.
Knox Berger,(786) 397-5362,sed.neque@aol.org,Eu LLC,Veere,East Java,Netherlands,PL92243154681696646576738088,Yes,330-909 In Av.
Axel Waller,(132) 850-2125,id.blandit.at@protonmail.org,Nunc Sed Incorporated,Brye,La Libertad,South Korea,FI5041635442553103,Yes,"P.O. Box 422, 9780 Ac Avenue"
Amos Duncan,1-291-125-5385,nullam@hotmail.net,Consectetuer Foundation,Drammen,Navarra,South Africa,AL94541806660644438321541974,Yes,480-8466 Aliquam Ave
Ferris Barber,1-224-861-5361,a.mi@aol.net,Adipiscing Corp.,Kaluga,Tasmania,Canada,AZ87234637258744724358366053,Yes,117-7686 Egestas Rd.
Irma Castro,1-297-824-4724,aliquet.magna@yahoo.couk,Donec PC,Pachuca,West Region,Ireland,KW6356927010428723511717326452,Yes,"497-2550 Nec, Street"
Octavia O'connor,(857) 378-8413,nostra@protonmail.edu,Ligula Donec Limited,Traiguén,Mazowieckie,Belgium,EE196414192283314108,Yes,516-3105 Ridiculus Ave
Nerea Montgomery,1-591-689-6762,nulla.integer@icloud.couk,Malesuada Fames PC,San José de Alajuela,Punjab,Ireland,IE86NPBJ76741900695421,No,8929 Mauris Avenue
Rashad Mathis,1-394-289-6545,sed.eu.eros@outlook.ca,Sociis Natoque Corporation,Vienna,Caldas,Indonesia,AL53718331740746416321375657,Yes,189-8568 Sodales. Street
Erich Barry,1-832-283-5788,tellus.suspendisse@protonmail.org,Nullam Feugiat Placerat LLC,Mont-de-Marsan,Limousin,Austria,IL126157297226389196452,Yes,Ap #515-4514 Pede. Rd.
Allen Washington,(129) 372-7576,conubia@google.couk,A Neque Nullam Associates,Secunda,Chandigarh,Norway,IL562295717464484921636,Yes,Ap #404-7113 Pellentesque Road
Amela Ingram,1-865-737-6951,odio.semper.cursus@hotmail.edu,Enim Mi Limited,Sint-Jans-Molenbeek,FATA,Belgium,DK9139585971511483,Yes,5390 Mauris Avenue
Garth Clemons,1-756-268-5642,pretium@google.ca,Elementum Sem Inc.,Semarang,Coahuila,Austria,DE79957115879792314786,No,"3000 Nec, St."
Irene Salas,1-146-672-5467,tincidunt.dui@protonmail.com,Non Enim Commodo Limited,Huelva,Vienna,Brazil,BH29826253773803034716,No,8860 Ipsum. St.
Bradley Tran,1-316-721-3271,suspendisse@aol.org,Eu Placerat Eget Institute,Saint-Étienne-du-Rouvray,Galicia,United States,HR0351110785313919712,Yes,Ap #608-7905 Bibendum Street
Adam Downs,(874) 488-4249,fringilla.cursus@protonmail.couk,Duis Consulting,Shanxi,Pskov Oblast,Netherlands,NO2033651754556,No,594-5500 Fringilla Road
Doris Burnett,(636) 939-6314,enim.etiam@google.com,Gravida Non Sollicitudin Incorporated,Norfolk,Junín,Sweden,GR9252305846558988425436642,Yes,2954 Pellentesque Ave
Luke Cunningham,(688) 280-8444,tellus.phasellus.elit@aol.edu,Nullam Scelerisque LLC,Wardha,Northwest Territories,United Kingdom,LV16GDMT7147689942683,Yes,6467 Consequat Av.
Scott Green,(863) 505-4355,donec.non@outlook.org,Vivamus Nisi Corp.,Palu,British Columbia,India,SM1486181785213827587458718,Yes,3196 Varius St.
Tyrone Whitehead,1-837-311-7293,tincidunt@protonmail.edu,Viverra Donec Incorporated,Carterton,Sicilia,Germany,CR2328441663796848709,No,Ap #171-3311 Mauris Road
Zenia Velazquez,1-223-306-1886,in.dolor@yahoo.edu,Gravida Industries,Alençon,Saskatchewan,United States,MR0687391891639163486663156,Yes,173-4028 Massa St.
Elijah Crane,(943) 244-7334,rutrum.non@icloud.couk,Proin Ultrices Limited,Dehradun,Limburg,France,CH2723132482533591278,Yes,8260 Blandit Avenue
Blossom Gordon,(741) 710-3091,praesent.eu@protonmail.org,Amet Dapibus Id Corp.,Göksun,North West,Colombia,KW8509028492192344306631138788,Yes,Ap #312-5729 Adipiscing Ave
Kaitlin Jenkins,1-229-316-6531,auctor.vitae.aliquet@hotmail.org,Litora Torquent Associates,Hoogstraten,Lubuskie,France,DK0932675219141777,Yes,"Ap #898-4207 Elit, Rd."
Julie Rogers,1-377-123-6875,ornare.facilisis.eget@icloud.com,Enim Corp.,Deventer,Vlaams-Brabant,Philippines,AL84280173297817346438333015,Yes,Ap #864-8789 Ac Av.
Carissa Wilder,1-345-572-2805,donec.fringilla.donec@outlook.net,Mattis Integer Industries,Isernia,North Sulawesi,Italy,ES4607865543280471476544,No,673-6780 Fusce Avenue
Jaquelyn Gilmore,(225) 548-7732,non@outlook.com,Libero Corp.,Canberra,Drenthe,Belgium,RO96YFBM9817035493245886,Yes,Ap #776-8258 Ornare. Ave
Nissim Fulton,(628) 329-1570,orci.luctus@protonmail.couk,Id Risus Limited,Arequipa,Eastern Visayas,Italy,NO8352927439774,No,"P.O. Box 916, 7810 Nam Road"
Perry Dean,(619) 642-8554,eu@hotmail.ca,Lorem Vitae Limited,Poviglio,Comunitat Valenciana,Singapore,GL4399420567506798,No,Ap #513-6097 Purus Rd.
Jesse Marquez,1-645-544-7593,sagittis.placerat@hotmail.edu,Sed Tortor Ltd,Oslo,Wisconsin,Australia,RS17268564532625585187,No,Ap #814-7049 Velit. St.
Eugenia Baldwin,1-312-977-2860,ut.eros@yahoo.edu,Lorem Eu Metus Institute,Maasin,Missouri,Germany,DK7586553422871331,Yes,Ap #360-8178 Commodo St.
Igor Vang,(456) 926-8743,duis.ac@aol.edu,Gravida Sit Foundation,Mitú,Valparaíso,Philippines,IE20ZDRX10715214816325,No,934-2256 Nibh. Avenue
Ryder Shields,(504) 665-4934,donec.est@aol.com,Luctus Incorporated,Bolsward,Connacht,India,KW1444978763002256366855647563,Yes,"P.O. Box 912, 6366 Lectus St."
Aurora Sparks,(144) 553-8878,fringilla.porttitor@google.org,Duis Elementum Dui LLC,Monstreux,Munster,China,BE94782657636766,Yes,3260 Ullamcorper. St.
Keefe Howell,(383) 934-2832,mauris.id@outlook.org,Neque Morbi Ltd,Huacho,Alsace,United Kingdom,LB57347594029243082528478747,Yes,Ap #967-2677 Ipsum Av.
Barclay Nieves,(924) 567-2113,donec.luctus@protonmail.org,Vitae Semper Egestas Foundation,Caucaia,Salzburg,China,IE92WRRL26433741827530,Yes,Ap #268-4283 Egestas. Av.
Joelle O'donnell,1-712-239-5880,est.mauris@icloud.net,Eget Lacus Inc.,Pabianice,Dōngběi,Russian Federation,BG31BVHF91632628473179,No,"P.O. Box 218, 4003 Non Ave"
Ryan Wolfe,1-854-888-5555,mi.aliquam.gravida@icloud.couk,Erat LLC,Duitama,East Region,Russian Federation,FO6467143821382443,No,698-4057 Et Rd.
Leonard Bernard,(662) 683-4080,lacinia.mattis@protonmail.org,Amet Consectetuer Inc.,Nicoya,Rio Grande do Sul,Peru,LV75BXPY4232962468517,No,8285 Dolor. Rd.
Sebastian Hernandez,(634) 750-6996,amet.ornare@yahoo.couk,Ut Molestie Ltd,Belfast,Azad Kashmir,South Africa,DK5830179518987187,No,815-3191 Metus. Road
Jamalia Calhoun,(782) 823-9277,nunc.mauris@outlook.org,Sed Dolor Fusce Industries,Bacabal,North Island,Turkey,SM5930460155482865484105644,No,Ap #287-4058 Maecenas Avenue
Chaney Chapman,(272) 595-9215,suspendisse@hotmail.edu,Mi LLP,Pangnirtung,Niedersachsen,United Kingdom,IL336578122480175870654,No,"P.O. Box 527, 2703 Luctus Ave"
Fuller Beach,(891) 642-9479,mi.duis@yahoo.com,Risus Duis Inc.,Vilvoorde,Brussels Hoofdstedelijk Gewest,Russian Federation,CR4666774474557722243,No,Ap #357-1449 Nunc St.
Peter Miller,1-184-273-4863,nec.quam@icloud.couk,Justo LLC,Tangub,Minas Gerais,Chile,CH7252715891382543976,Yes,634-9925 Turpis. Rd.
Kenneth Benjamin,(416) 621-5747,tristique.senectus@outlook.edu,Urna Convallis Erat Foundation,Jilin,Puntarenas,Turkey,LV03RTQW3816919748144,Yes,Ap #593-7547 Eget Road
Rahim Cortez,(525) 482-7595,ac.tellus@google.couk,Nunc Lectus LLC,Rockville,Western Australia,Canada,IL917739387352678209782,Yes,2464 Sodales Rd.
Camden Montgomery,1-583-591-8464,eget@hotmail.org,Amet Consectetuer Institute,Ikot Ekpene,Ulster,Mexico,DE41137243598153678133,Yes,Ap #920-858 Eu Ave
Leroy Rutledge,(895) 256-4822,dictum@aol.net,Nisl Maecenas LLC,Varash,Manitoba,Nigeria,KW2752670547772631136229523973,Yes,"P.O. Box 639, 8188 Etiam Rd."
Quinn Livingston,(915) 884-5837,a.aliquet.vel@aol.com,In Mi Industries,Stade,Piemonte,Costa Rica,BA562142580247330060,Yes,"P.O. Box 832, 9691 Magnis Road"
Bruce Hewitt,(847) 201-3669,enim.nunc@hotmail.ca,Mauris Nulla Company,Bastia,La Guajira,Chile,MR7982610166136030256035508,No,2119 Egestas. Street
Melvin Navarro,(372) 852-6863,ante.bibendum@protonmail.com,Varius Ultrices Mauris Company,Murray Bridge,Central Region,United Kingdom,LU164416683227404351,No,Ap #156-3125 Commodo Street
Fulton Gonzales,1-435-627-5822,sodales@icloud.ca,Adipiscing Elit Corporation,Laoag,Soccsksargen,Singapore,RO27TYUL1465245554135846,Yes,Ap #575-1147 Dolor. Street
Isadora George,1-851-955-1725,orci.consectetuer.euismod@aol.edu,At Industries,Phan Rang–Tháp Chàm,Central Region,Ireland,ME47845205410576352615,Yes,Ap #696-1956 Et Rd.
Griffin Horton,(722) 313-1582,donec@outlook.net,A PC,San Vicente del Caguán,Salzburg,France,ME61166296796937034815,Yes,Ap #850-1150 Fermentum Rd.
Cheryl Ross,(463) 856-9733,volutpat@icloud.edu,Libero Mauris Institute,Tranås,Sverdlovsk Oblast,Austria,AE447653776223672454731,Yes,9576 Tortor Ave
Melanie Terry,(165) 664-2258,arcu.vestibulum@protonmail.net,Tortor Nunc LLP,Tamworth,Arkansas,France,AD2425158486370257432796,No,278-9378 Luctus Rd.
Jocelyn Owens,1-233-343-9532,vel@hotmail.couk,Enim Diam Foundation,Jaipur,łódzkie,United States,CH5368331527910436564,Yes,913-5779 Augue St.
Dora Jimenez,1-220-418-2745,vivamus.rhoncus@outlook.edu,Curabitur Egestas Nunc LLC,Castiglione a Casauria,Punjab,Chile,CZ4064379375180257126853,No,Ap #729-9917 Sagittis Av.
Noelle Erickson,(537) 427-7148,velit.pellentesque@outlook.org,Ultricies Sem LLP,Levanger,Van,Singapore,TN9064077053532758204381,Yes,814-3549 Dui St.
Shad Kane,1-892-420-5773,egestas@hotmail.net,Pede Praesent PC,Quy Nhơn,Himachal Pradesh,Singapore,MU1636848862628025721166765817,Yes,Ap #581-4018 Mauris. Ave
Howard Espinoza,(267) 965-4351,nec.orci.donec@google.net,Sit LLC,Sokoto,West Bengal,Belgium,CR4034381430733633679,No,Ap #466-2928 Dictum. Rd.
Illana Barton,1-486-328-7528,nec.metus.facilisis@yahoo.net,Tellus Justo LLC,Beauvais,Wielkopolskie,United States,MD2094103758729369627154,No,Ap #272-5973 Metus Street
Erasmus Chang,(337) 183-9623,pede.cum@icloud.couk,Neque Tellus Corp.,Kupang,Hưng Yên,Mexico,MC8222056309868043067736434,No,437-6787 Tempor St.
Zephr Maldonado,1-103-222-6253,tincidunt@hotmail.couk,Nec Quam LLP,Tampines,Waals-Brabant,Netherlands,RO16PDUH5041248985638414,No,199-3360 Sed Rd.
Noah Abbott,(618) 273-7028,libero@aol.edu,Ante Ipsum Incorporated,Pinkafeld,North Island,Poland,RS89108532795277554830,No,7042 Lacinia. St.
Louis Knapp,1-527-486-5219,amet.ultricies.sem@outlook.net,Enim Sed Institute,Stjørdalshalsen,Antalya,Colombia,CZ3004176818159704224112,No,Ap #195-8688 Nulla. Ave
Adrian Richmond,(728) 228-8849,tempus.risus@aol.com,Nulla Integer Urna Consulting,Wals-Siezenheim,Australian Capital Territory,France,FR7114488684626231673452652,Yes,994-5871 Elit Rd.
Solomon Gonzalez,(821) 986-0149,nec.urna@aol.org,Adipiscing Mauris LLP,Inner Mongolia,Pennsylvania,Russian Federation,IS674523705044720500618554,No,Ap #103-6578 Curabitur Av.
Sonia Payne,(213) 375-7370,nunc.sed@hotmail.org,Mattis Cras Eget Institute,Tehuacán,Alsace,New Zealand,HU53081562243743143497664628,Yes,3428 Semper Rd.
Chester Webb,1-356-310-4122,auctor.velit.eget@hotmail.ca,Amet Diam Inc.,Puntarenas,Bursa,Ukraine,GB08ACNH74930571567379,Yes,222-4939 Ornare. Avenue
Prescott Woods,1-585-261-6916,dui.fusce@icloud.com,Vitae Incorporated,San Pedro,North Island,Pakistan,PT53783278512226351818702,No,319-9493 Sem Street
Stella Vance,(510) 623-3013,lacinia.at@hotmail.couk,Egestas Fusce Industries,Sicuani,Stockholms län,New Zealand,ME16475746872017421116,No,Ap #710-5539 Interdum Rd.
Jelani Palmer,(484) 235-3680,viverra.maecenas@google.net,Egestas Foundation,Armenia,Limón,Mexico,PL97578617676576295065513976,No,"422-4971 Auctor, Avenue"
Renee Barron,1-273-442-5543,erat@aol.org,Facilisis Magna Limited,Watson Lake,Champagne-Ardenne,Germany,NO5573176927284,Yes,121-8681 Eget Road
Erich Heath,(576) 865-3111,metus@aol.couk,Nunc Sed Ltd,Tidore,Bình Phước,Costa Rica,CZ9117616686539645459230,No,755-1687 Non St.
Thor Roberson,1-864-892-5649,amet.dapibus.id@google.ca,Nulla Associates,Phuthaditjhaba,Munster,Canada,AE396552758458160221458,Yes,"P.O. Box 863, 9906 Donec Street"
